"","X","stationName","latitude","longitude","stAddress1","Address"
"1",1,"6 Ave & Canal St",40.72243797,-74.00566443,"6 Ave & Canal St","417 Canal St, New York, NY 10013, USA"
"2",2,"Broadway & E 22 St",40.7403432,-73.98955109,"Broadway & E 22 St","931 Broadway, New York, NY 10010, USA"
"3",3,"8 Ave & W 31 St",40.7505853470215,-73.9946848154068,"8 Ave & W 31 St","8 Ave & W 31 St, New York, NY 10001, United States"
"4",4,"W 52 St & 6 Ave",40.7613298312481,-73.9798200130463,"W 52 St & 6 Ave","W 52 St & 6 Ave, New York, NY 10019, United States"
"5",5,"W 52 St & 11 Ave",40.76727216,-73.99392888,"W 52 St & 11 Ave","W 52 St & 11 Ave, New York, NY 10019, United States"
"6",6,"Franklin St & W Broadway",40.71911552,-74.00666661,"Franklin St & W Broadway","Franklin St & W Broadway, New York, NY 10013, United States"
"7",7,"St James Pl & Pearl St",40.71117416,-74.00016545,"St James Pl & Pearl St","St James Pl & Pearl St, New York, NY 10038, United States"
"8",8,"Atlantic Ave & Fort Greene Pl",40.68382604,-73.97632328,"Atlantic Ave & Fort Greene Pl","Atlantic Ave & Fort Greene Pl, Brooklyn, NY 11217, United States"
"9",9,"Park Ave & St Edwards St",40.69608941,-73.97803415,"Park Ave & St Edwards St","Park Ave & St Edwards St, Brooklyn, NY 11205, United States"
"10",10,"Lexington Ave & Classon Ave",40.68676793,-73.95928168,"Lexington Ave & Classon Ave","Lexington Ave & Classon Ave, Brooklyn, NY 11238, United States"
"11",11,"Barrow St & Hudson St",40.73172428,-74.00674436,"Barrow St & Hudson St","Barrow St & Hudson St, New York, NY 10014, United States"
"12",12,"MacDougal St & Prince St",40.72710258,-74.00297088,"MacDougal St & Prince St","MacDougal St & Prince St, New York, NY 10012, United States"
"13",13,"Clinton St & Joralemon St",40.69239502,-73.99337909,"Clinton St & Joralemon St","130 Clinton St, Brooklyn, NY 11201, USA"
"14",14,"Nassau St & Navy St",40.69839895,-73.98068914,"Nassau St & Navy St","Nassau St & Navy St, Brooklyn, NY 11201, United States"
"15",15,"Hudson St & Reade St",40.71625008,-74.0091059,"Hudson St & Reade St","Hudson St & Reade St, New York, NY 10013, United States"
"16",16,"E 2 St & Avenue C",40.7208736,-73.98085795,"E 2 St & Avenue C","E 2 St & Avenue C, New York, NY 10009, United States"
"17",17,"Cleveland Pl & Spring St",40.722103786686,-73.997249007225,"Cleveland Pl & Spring St","Cleveland Pl & Spring St, New York, NY 10012, United States"
"18",18,"Henry St & Atlantic Ave",40.69089272,-73.99612349,"Henry St & Atlantic Ave","Henry St & Atlantic Ave, Brooklyn, NY 11201, United States"
"19",19,"LaGuardia Pl & W 3 St",40.72917025,-73.99810231,"LaGuardia Pl & W 3 St","LaGuardia Pl & W 3 St, New York, NY 10012, United States"
"20",20,"E 47 St & 2 Ave",40.75323098,-73.97032517,"E 47 St & 2 Ave","E 47 St & 2 Ave, New York, NY 10017, United States"
"21",21,"E 39 St & 3 Ave",40.7489006,-73.97604882,"E 39 St & 3 Ave","E 39 St & 3 Ave, New York, NY 10016, United States"
"22",22,"W 18 St & 6 Ave",40.73971301,-73.99456405,"W 18 St & 6 Ave","W 18 St & 6 Ave, New York, NY 10011, United States"
"23",23,"Broadway & W 49 St",40.7606832709659,-73.9845272898674,"Broadway & W 49 St","Broadway & W 49 St, New York, NY 10019, United States"
"24",24,"E 25 St & 1 Ave",40.7381765,-73.97738662,"E 25 St & 1 Ave","E 25 St & 1 Ave, New York, NY 10010, United States"
"25",25,"Liberty St & Broadway",40.70905623,-74.01043382,"Liberty St & Broadway","Liberty St & Broadway, New York, NY 10005, United States"
"26",26,"W 16 St & The High Line",40.74334935,-74.00681753,"W 16 St & The High Line","98 10th Ave, New York, NY 10011, USA"
"27",27,"Columbia Heights & Cranberry St",40.70037867,-73.99548059,"Columbia Heights & Cranberry St","77 Columbia Heights, Brooklyn, NY 11201, USA"
"28",28,"Old Fulton St",40.70277159,-73.99383605,"Old Fulton St","11 Fulton St, Brooklyn, NY 10038, USA"
"29",29,"W 13 St & 7 Ave",40.73781509,-73.99994661,"W 13 St & 7 Ave","W 13 St & 7 Ave, New York, NY 10011, United States"
"30",30,"Spruce St & Nassau St",40.71146364,-74.00552427,"Spruce St & Nassau St","One Pace Plaza, New York, NY 10038, USA"
"31",31,"E 48 St & 3 Ave",40.7546011026,-73.971878855,"E 48 St & 3 Ave","E 48 St & 3 Ave, New York, NY 10017, United States"
"32",32,"Great Jones St",40.72743423,-73.99379025,"Great Jones St","Great Jones St, New York, NY 10012, United States"
"33",33,"St Marks Pl & 2 Ave",40.7284186,-73.98713956,"St Marks Pl & 2 Ave","St Marks Pl & 2 Ave, New York, NY 10003, United States"
"34",34,"E 11 St & 2 Ave",40.73047309,-73.98672378,"E 11 St & 2 Ave","E 11 St & 2 Ave, New York, NY 10003, United States"
"35",35,"Bank St & Washington St",40.7361967,-74.00859207,"Bank St & Washington St","55 Bethune St, New York, NY 10014, USA"
"36",36,"Willoughby St & Fleet St",40.69196566,-73.9813018,"Willoughby St & Fleet St","Willoughby St & Fleet St, Brooklyn, NY 11201, United States"
"37",37,"DeKalb Ave & S Portland Ave",40.68981035,-73.97493121,"DeKalb Ave & S Portland Ave","DeKalb Ave & S Portland Ave, Brooklyn, NY 11217, United States"
"38",38,"Carlton Ave & Flushing Ave",40.697787,-73.973736,"Carlton Ave & Flushing Ave","Carlton Ave & Flushing Ave, Brooklyn, NY 11205, United States"
"39",39,"Fulton St & Rockwell Pl",40.688226,-73.979382,"Fulton St & Rockwell Pl","Fulton St & Rockwell Pl, Brooklyn, NY 11217, United States"
"40",40,"Willoughby Ave & Hall St",40.69196035,-73.96536851,"Willoughby Ave & Hall St","Willoughby Ave & Hall St, Brooklyn, NY 11205, United States"
"41",41,"Myrtle Ave & St Edwards St",40.69327018,-73.97703874,"Myrtle Ave & St Edwards St","Myrtle Ave & St Edwards St, Brooklyn, NY 11205, United States"
"42",42,"Perry St & Bleecker St",40.73535398,-74.00483091,"Perry St & Bleecker St","Perry St & Bleecker St, New York, NY 10014, United States"
"43",43,"Laight St & Hudson St",40.72185379,-74.00771779,"Laight St & Hudson St","Laight St & Hudson St, New York, NY 10013, United States"
"44",44,"Harrison St & Hudson St",40.71870987,-74.0090009,"Harrison St & Hudson St","Harrison St & Hudson St, New York, NY 10013, United States"
"45",45,"Mott St & Prince St",40.72317958,-73.99480012,"Mott St & Prince St","242 Mott St, New York, NY 10012, USA"
"46",46,"MacDougal St & Washington Sq",40.73226398,-73.99852205,"MacDougal St & Washington Sq","MacDougal St & Washington Sq, New York, NY 10011, United States"
"47",47,"W 11 St & 6 Ave",40.73532427,-73.99800419,"W 11 St & 6 Ave","W 11 St & 6 Ave, New York, NY 10011, United States"
"48",48,"Lispenard St & Broadway",40.71939226,-74.00247214,"Lispenard St & Broadway","Lispenard St & Broadway, New York, NY 10013, United States"
"49",49,"DeKalb Ave & Vanderbilt Ave",40.68940747,-73.96885458,"DeKalb Ave & Vanderbilt Ave","DeKalb Ave & Vanderbilt Ave, Brooklyn, NY 11205, United States"
"50",50,"South St & Whitehall St",40.70122128,-74.01234218,"South St & Whitehall St","South St & Whitehall St, New York, NY 10004, United States"
"51",51,"Broad St & Bridge St",40.70365182,-74.01167797,"Broad St & Bridge St","Broad St & Bridge St, New York, NY 10004, United States"
"52",52,"Johnson St & Gold St",40.69474881,-73.98362464,"Johnson St & Gold St","Johnson St & Gold St, Brooklyn, NY 11201, United States"
"53",53,"Washington Park",40.6917823,-73.9737299,"Washington Park","Washington Park, Brooklyn, NY 11205, United States"
"54",54,"Maiden Ln & Pearl St",40.70706456,-74.00731853,"Maiden Ln & Pearl St","Maiden Ln & Pearl St, New York, NY 10038, United States"
"55",55,"Stanton St & Chrystie St",40.72229346,-73.99147535,"Stanton St & Chrystie St","Stanton St & Chrystie St, New York, NY 10002, United States"
"56",56,"Avenue D & E 8 St",40.72368361,-73.97574813,"Avenue D & E 8 St","Avenue D & E 8 St, New York, NY 10009, United States"
"57",57,"Broadway & W 36 St",40.75097711,-73.98765428,"Broadway & W 36 St","Broadway & W 36 St, New York, NY 10018, United States"
"58",58,"Howard St & Centre St",40.71910537,-73.99973337,"Howard St & Centre St","129 Lafayette St, New York, NY 10013, USA"
"59",59,"Adelphi St & Myrtle Ave",40.69308257,-73.97178913,"Adelphi St & Myrtle Ave","Adelphi St & Myrtle Ave, Brooklyn, NY 11205, United States"
"60",60,"Lafayette Ave & Fort Greene Pl",40.68691865,-73.976682,"Lafayette Ave & Fort Greene Pl","Lafayette Ave & Fort Greene Pl, Brooklyn, NY 11217, United States"
"61",61,"Washington Ave & Greene Ave",40.68650065,-73.96563307,"Washington Ave & Greene Ave","Greene Av/Washington Av, Brooklyn, NY 11238, USA"
"62",62,"Duane St & Greenwich St",40.71748752,-74.0104554,"Duane St & Greenwich St","Duane St & Greenwich St, New York, NY 10013, United States"
"63",63,"Concord St & Bridge St",40.69766564,-73.98476437,"Concord St & Bridge St","165 Concord St, Brooklyn, NY 11201, USA"
"64",64,"Peck Slip & Front St",40.707873,-74.00167,"Peck Slip & Front St","Peck Slip & Front St, New York, NY 10038, United States"
"65",65,"E 10 St & 5 Ave",40.73331967,-73.99510132,"E 10 St & 5 Ave","E 10 St & 5 Ave, New York, NY 10003, United States"
"66",66,"Grand Army Plaza & Central Park S",40.7643971,-73.97371465,"Grand Army Plaza & Central Park S","Grand Army Plaza & Central Park S, New York, NY 10019, United States"
"67",67,"Kent Ave & S 11 St",40.7076449441757,-73.9684152603149,"Kent Ave & S 11 St","Kent Ave & S 11 St, Brooklyn, NY 11249, United States"
"68",68,"Broadway & E 14 St",40.73454567,-73.99074142,"Broadway & E 14 St","Broadway & E 14 St, New York, NY 10003, United States"
"69",69,"Monroe St & Classon Ave",40.6845683,-73.95881081,"Monroe St & Classon Ave","Monroe St & Classon Ave, Brooklyn, NY 11238, United States"
"70",70,"Madison St & Montgomery St",40.713126,-73.984844,"Madison St & Montgomery St","Madison St & Montgomery St, New York, NY 10002, United States"
"71",71,"Lafayette St & E 8 St",40.7302066052995,-73.9910262823105,"Lafayette St & E 8 St","Lafayette St & E 8 St, New York, NY 10003, United States"
"72",72,"Pike St & E Broadway",40.71406667,-73.99293911,"Pike St & E Broadway","Pike St & E Broadway, New York, NY 10002, United States"
"73",73,"Division St & Bowery",40.71413089,-73.9970468,"Division St & Bowery","4 Division St, New York, NY 10002, USA"
"74",74,"E 15 St & 3 Ave",40.734232,-73.986923,"E 15 St & 3 Ave","145 E 15th St, New York, NY 10003, USA"
"75",75,"3 Ave & Schermerhorn St",40.68683208,-73.9796772,"3 Ave & Schermerhorn St","3 Ave & Schermerhorn St, Brooklyn, NY 11217, United States"
"76",76,"E 2 St & Avenue B",40.72217444,-73.98368779,"E 2 St & Avenue B","E 2 St & Avenue B, New York, NY 10009, United States"
"77",77,"Avenue D & E 3 St",40.72082834,-73.97793172,"Avenue D & E 3 St","Avenue D & E 3 St, New York, NY 10009, United States"
"78",78,"Mercer St & Spring St",40.72362738,-73.99949601,"Mercer St & Spring St","Mercer St & Spring St, New York, NY 10012, United States"
"79",79,"Broadway & Battery Pl",40.70463334,-74.01361706,"Broadway & Battery Pl","Bowling Green, New York, NY 10004, USA"
"80",80,"E 58 St & 3 Ave",40.76095756,-73.96724467,"E 58 St & 3 Ave","E 58 St & 3 Ave, New York, NY 10022, United States"
"81",81,"Canal St & Rutgers St",40.71427487,-73.98990025,"Canal St & Rutgers St","Canal St & Rutgers St, New York, NY 10002, United States"
"82",82,"St James Pl & Oliver St",40.71307916,-73.99851193,"St James Pl & Oliver St","St James Pl & Oliver St, New York, NY 10038, United States"
"83",83,"Murray St & West St",40.7149787,-74.013012,"Murray St & West St","Murray St & West St, New York, NY 10007, United States"
"84",84,"State St & Smith St",40.68926942,-73.98912867,"State St & Smith St","275 Atlantic Ave, Brooklyn, NY 11201, USA"
"85",85,"Norfolk St & Broome St",40.7172274,-73.98802084,"Norfolk St & Broome St","Norfolk St & Broome St, New York, NY 10002, United States"
"86",86,"Allen St & Stanton St",40.722055,-73.989111,"Allen St & Stanton St","Allen St & Stanton St, New York, NY 10002, United States"
"87",87,"Washington Ave & Park Ave",40.69610226,-73.96751037,"Washington Ave & Park Ave","Washington Ave & Park Ave, Brooklyn, NY 11205, United States"
"88",88,"Cadman Plaza West & Montague St",40.69383,-73.990539,"Cadman Plaza West & Montague St","Cadman Plaza West & Montague St, Brooklyn, NY 11201, United States"
"89",89,"South St & Gouverneur Ln",40.70355377,-74.00670227,"South St & Gouverneur Ln","South St & Gouverneur Ln, New York, NY 10005, United States"
"90",90,"Fulton St & William St",40.70955958,-74.00653609,"Fulton St & William St","Fulton St & William St, New York, NY 10038, United States"
"91",91,"E 6 St & Avenue B",40.72453734,-73.98185424,"E 6 St & Avenue B","E 6 St & Avenue B, New York, NY 10009, United States"
"92",92,"Fulton St & Broadway",40.711066,-74.009447,"Fulton St & Broadway","Fulton Street Station, Broadway, New York, NY 10038, USA"
"93",93,"Leonard St & Church St",40.717571,-74.005549,"Leonard St & Church St","Leonard St & Church St, New York, NY 10013, United States"
"94",94,"Cadman Plaza E & Red Cross Pl",40.69991755,-73.98971773,"Cadman Plaza E & Red Cross Pl","Cadman Plaza E & Red Cross Pl, Brooklyn, NY 11201, United States"
"95",95,"Clinton St & Tillary St",40.696192,-73.991218,"Clinton St & Tillary St","Clinton St & Tillary St, Brooklyn, NY 11201, United States"
"96",96,"Lawrence St & Willoughby St",40.69236178,-73.98631746,"Lawrence St & Willoughby St","Lawrence St & Willoughby St, Brooklyn, NY 11201, United States"
"97",97,"DeKalb Ave & Hudson Ave",40.689888,-73.981013,"DeKalb Ave & Hudson Ave","DeKalb Ave & Hudson Ave, Brooklyn, NY 11201, United States"
"98",98,"E 19 St & 3 Ave",40.73624527,-73.98473765,"E 19 St & 3 Ave","E 19 St & 3 Ave, New York, NY 10003, United States"
"99",99,"E 11 St & 1 Ave",40.72953837,-73.98426726,"E 11 St & 1 Ave","E 11 St & 1 Ave, New York, NY 10003, United States"
"100",100,"Vesey Pl & River Terrace",40.7153379,-74.01658354,"Vesey Pl & River Terrace","6 River Terrace, New York, NY 10282, USA"
"101",101,"Watts St & Greenwich St",40.72405549,-74.00965965,"Watts St & Greenwich St","466 Greenwich St, New York, NY 10013, USA"
"102",102,"Reade St & Broadway",40.71450451,-74.00562789,"Reade St & Broadway","Reade St & Broadway, New York, NY 10007, United States"
"103",103,"Pike St & Monroe St",40.71173107,-73.99193043,"Pike St & Monroe St","Pike St & Monroe St, New York, NY 10002, United States"
"104",104,"Cherry St",40.71219906,-73.97948148,"Cherry St","Cherry St, New York, NY 10002, United States"
"105",105,"W 20 St & 7 Ave",40.74238787,-73.99726235,"W 20 St & 7 Ave","W 20 St & 7 Ave, New York, NY 10011, United States"
"106",106,"Washington Pl & Broadway",40.72903917,-73.99404649,"Washington Pl & Broadway","Meyer Block, New York, NY 10003, USA"
"107",107,"Sullivan St & Washington Sq",40.73047747,-73.99906065,"Sullivan St & Washington Sq","Sullivan St & Washington Sq, New York, NY 10012, United States"
"108",108,"Old Slip & Front St",40.7037992,-74.00838676,"Old Slip & Front St","Old Slip & Front St, New York, NY 10005, United States"
"109",109,"Avenue D & E 12 St",40.72580614,-73.97422494,"Avenue D & E 12 St","Avenue D & E 12 St, New York, NY 10009, United States"
"110",110,"Madison St & Clinton St",40.71269042,-73.98776323,"Madison St & Clinton St","Madison St & Clinton St, New York, NY 10002, United States"
"111",111,"Stanton St & Mangin St",40.71782143,-73.97628939,"Stanton St & Mangin St","Stanton St & Mangin St, New York, NY 10002, United States"
"112",112,"Columbia St & Rivington St",40.71739973,-73.98016555,"Columbia St & Rivington St","Columbia St & Rivington St, New York, NY 10002, United States"
"113",113,"Clinton Ave & Flushing Ave",40.69794,-73.96986848,"Clinton Ave & Flushing Ave","Clinton Ave & Flushing Ave, Brooklyn, NY 11205, United States"
"114",114,"Monroe St & Bedford Ave",40.6851443,-73.95380904,"Monroe St & Bedford Ave","Monroe St & Bedford Ave, Brooklyn, NY 11216, United States"
"115",115,"Bank St & Hudson St",40.73652889,-74.00618026,"Bank St & Hudson St","Bank St & Hudson St, New York, NY 10014, United States"
"116",116,"Greenwich St & W Houston St",40.728846,-74.008591,"Greenwich St & W Houston St","Greenwich St & W Houston St, New York, NY 10014, United States"
"117",117,"Rivington St & Ridge St",40.71850211,-73.98329859,"Rivington St & Ridge St","Rivington St & Ridge St, New York, NY 10002, United States"
"118",118,"Clinton St & Grand St",40.71559509,-73.9870295,"Clinton St & Grand St","175 Clinton St, New York, NY 10002, USA"
"119",119,"Front St & Maiden Ln",40.70530954,-74.00612572,"Front St & Maiden Ln","133 Front St, New York, NY 10005, USA"
"120",120,"S Portland Ave & Hanson Pl",40.68539567,-73.97431458,"S Portland Ave & Hanson Pl","S Portland Ave & Hanson Pl, Brooklyn, NY 11217, United States"
"121",121,"Emerson Pl & Myrtle Ave",40.69363137,-73.96223558,"Emerson Pl & Myrtle Ave","Emerson Pl & Myrtle Ave, Brooklyn, NY 11205, United States"
"122",122,"Bayard St & Baxter St",40.71602118,-73.99974372,"Bayard St & Baxter St","Bayard St & Baxter St, New York, NY 10013, United States"
"123",123,"Bialystoker Pl & Delancey St",40.71622644,-73.98261206,"Bialystoker Pl & Delancey St","Bialystoker Pl & Delancey St, New York, NY 10002, United States"
"124",124,"E 11 St & Broadway",40.73261787,-73.99158043,"E 11 St & Broadway","E 11 St & Broadway, New York, NY 10003, United States"
"125",125,"Christopher St & Greenwich St",40.73291553,-74.00711384,"Christopher St & Greenwich St","Christopher St & Greenwich St, New York, NY 10014, United States"
"126",126,"E 47 St & Park Ave",40.75510267,-73.97498696,"E 47 St & Park Ave","E 47 St & Park Ave, New York, NY 10017, United States"
"127",127,"William St & Pine St",40.70717936,-74.00887308,"William St & Pine St","William St & Pine St, New York, NY 10005, United States"
"128",128,"Allen St & Hester St",40.71605866,-73.99190759,"Allen St & Hester St","Allen St & Hester St, New York, NY 10002, United States"
"129",129,"Broadway & W 37 St",40.75172632,-73.98753523,"Broadway & W 37 St","Broadway & W 37 St, New York, NY 10018, United States"
"130",130,"West Thames St",40.70834698,-74.01713445,"West Thames St","West Thames St, New York, NY 10280, United States"
"131",131,"Lafayette Ave & Classon Ave",40.68900443,-73.96023854,"Lafayette Ave & Classon Ave","Classon Av, Brooklyn, NY 11238, USA"
"132",132,"Fulton St & Grand Ave",40.68223166,-73.9614583,"Fulton St & Grand Ave","Fulton St & Grand Ave, Brooklyn, NY 11238, United States"
"133",133,"Clinton Ave & Myrtle Ave",40.693261,-73.968896,"Clinton Ave & Myrtle Ave","Clinton Ave & Myrtle Ave, Brooklyn, NY 11205, United States"
"134",134,"Carmine St & 6 Ave",40.73038599,-74.00214988,"Carmine St & 6 Ave","20 Carmine St, New York, NY 10014, USA"
"135",135,"Washington Pl & 6 Ave",40.73224119,-74.00026394,"Washington Pl & 6 Ave","Washington Pl & 6 Ave, New York, NY 10011, United States"
"136",136,"Franklin Ave & Myrtle Ave",40.694546087246,-73.9580136537552,"Franklin Ave & Myrtle Ave","Franklin Ave & Myrtle Ave, Brooklyn, NY 11205, United States"
"137",137,"Willoughby Ave & Walworth St",40.69331716,-73.95381995,"Willoughby Ave & Walworth St","170 Sanford St, Brooklyn, NY 11205, USA"
"138",138,"John St & William St",40.70862144,-74.00722156,"John St & William St","John St & William St, New York, NY 10038, United States"
"139",139,"W 31 St & 7 Ave",40.749156,-73.9916,"W 31 St & 7 Ave","11 Pennsylvania Plaza, New York, NY 10001, USA"
"140",140,"W 4 St & 7 Ave S",40.73401143,-74.00293877,"W 4 St & 7 Ave S","W 4 St & 7 Ave S, New York, NY 10014, United States"
"141",141,"University Pl & E 14 St",40.73492695,-73.99200509,"University Pl & E 14 St","University Pl & E 14 St, New York, NY 10003, United States"
"142",142,"Greenwich Ave & Charles St",40.735238,-74.000271,"Greenwich Ave & Charles St","Greenwich Ave & Charles St, New York, NY 10011, United States"
"143",143,"E 55 St & 2 Ave",40.75797322,-73.96603308,"E 55 St & 2 Ave","E 55 St & 2 Ave, New York, NY 10022, United States"
"144",144,"Centre St & Worth St",40.71494807,-74.00234482,"Centre St & Worth St","Thomas Paine Park, Lafayette St &, Worth St, New York, NY 10007, United States"
"145",145,"Centre St & Chambers St",40.71273266,-74.0046073,"Centre St & Chambers St","Centre St & Chambers St, New York, NY 10007, United States"
"146",146,"W 26 St & 10 Ave",40.749717753,-74.002950346,"W 26 St & 10 Ave","259 10th Ave, New York, NY 10001, USA"
"147",147,"Broadway & Berry St",40.71044554,-73.96525063,"Broadway & Berry St","Broadway & Berry St, Brooklyn, NY 11249, United States"
"148",148,"Duffield St & Willoughby St",40.69221589,-73.9842844,"Duffield St & Willoughby St","Duffield St & Willoughby St, Brooklyn, NY 11201, United States"
"149",149,"Clark St & Henry St",40.69760127,-73.99344559,"Clark St & Henry St","Clark St & Henry St, Brooklyn, NY 11201, United States"
"150",150,"Jay St & Tech Pl",40.695065,-73.987167,"Jay St & Tech Pl","Jay St & Tech Pl, Brooklyn, NY 11201, United States"
"151",151,"E 5 St & Avenue C",40.72299208,-73.97995466,"E 5 St & Avenue C","E 5 St & Avenue C, New York, NY 10009, United States"
"152",152,"E 9 St & Avenue C",40.72521311,-73.97768752,"E 9 St & Avenue C","E 9 St & Avenue C, New York, NY 10009, United States"
"153",153,"Lefferts Pl & Franklin Ave",40.680342423,-73.9557689392,"Lefferts Pl & Franklin Ave","Lefferts Pl & Franklin Ave, Brooklyn, NY 11238, United States"
"154",154,"Fulton St & Clermont Ave",40.68415748,-73.96922273,"Fulton St & Clermont Ave","Fulton St & Clermont Ave, Brooklyn, NY 11238, United States"
"155",155,"Atlantic Ave & Furman St",40.69165183,-73.9999786,"Atlantic Ave & Furman St","Atlantic Ave & Furman St, Brooklyn, NY 11201, United States"
"156",156,"Lafayette Ave & St James Pl",40.68851534,-73.9647628,"Lafayette Ave & St James Pl","Lafayette Ave & St James Pl, Brooklyn, NY 11205, United States"
"157",157,"Pitt St & Stanton St",40.71926081,-73.98178024,"Pitt St & Stanton St","Pitt St & Stanton St, New York, NY 10002, United States"
"158",158,"Allen St & Rivington St",40.72019576,-73.98997825,"Allen St & Rivington St","Allen St & Rivington St, New York, NY 10002, United States"
"159",159,"E 2 St & 2 Ave",40.72502876,-73.99069656,"E 2 St & 2 Ave","E 2 St & 2 Ave, New York, NY 10003, United States"
"160",160,"Washington St & Gansevoort St",40.739323,-74.008119,"Washington St & Gansevoort St","812 Washington St, New York, NY 10014, USA"
"161",161,"Hicks St & Montague St",40.69512845,-73.99595065,"Hicks St & Montague St","Hicks St & Montague St, Brooklyn, NY 11201, United States"
"162",162,"Henry St & Poplar St",40.700469,-73.991454,"Henry St & Poplar St","140 Cadman Plaza W, Brooklyn, NY 11201, USA"
"163",163,"Market St & Cherry St",40.71076228,-73.99400398,"Market St & Cherry St","Market St & Cherry St, New York, NY 10002, United States"
"164",164,"DeKalb Ave & Skillman St",40.6906495,-73.95643107,"DeKalb Ave & Skillman St","254 Skillman St, Brooklyn, NY 11205, USA"
"165",165,"Suffolk St & Stanton St",40.72066442,-73.98517977,"Suffolk St & Stanton St","Suffolk St & Stanton St, New York, NY 10002, United States"
"166",166,"E 6 St & Avenue D",40.72228087,-73.97668709,"E 6 St & Avenue D","E 6 St & Avenue D, New York, NY 10009, United States"
"167",167,"Forsyth St & Canal St",40.7158155,-73.99422366,"Forsyth St & Canal St","Forsyth St & Canal St, New York, NY 10002, United States"
"168",168,"Pearl St & Anchorage Pl",40.70281858,-73.98765762,"Pearl St & Anchorage Pl","Pearl St & Anchorage Pl, Brooklyn, NY 11201, United States"
"169",169,"Pearl St & Hanover Square",40.7047177,-74.00926027,"Pearl St & Hanover Square","Pearl St & Hanover Square, New York, NY 10004, United States"
"170",170,"Cumberland St & Lafayette Ave",40.68753406,-73.97265183,"Cumberland St & Lafayette Ave","Cumberland St & Lafayette Ave, Brooklyn, NY 11238, United States"
"171",171,"Barclay St & Church St",40.71291224,-74.01020234,"Barclay St & Church St","Barclay St & Church St, New York, NY 10007, United States"
"172",172,"Front St & Gold St",40.70224,-73.982578,"Front St & Gold St","Front St & Gold St, Brooklyn, NY 11201, United States"
"173",173,"Carlton Ave & Park Ave",40.69580705,-73.97355569,"Carlton Ave & Park Ave","Carlton Ave & Park Ave, Brooklyn, NY 11205, United States"
"174",174,"Clermont Ave & Lafayette Ave",40.68764484,-73.96968902,"Clermont Ave & Lafayette Ave","174 Lafayette Ave, Brooklyn, NY 11238, USA"
"175",175,"Clermont Ave & Park Ave",40.69573398,-73.97129668,"Clermont Ave & Park Ave","Clermont Ave & Park Ave, Brooklyn, NY 11205, United States"
"176",176,"W 59 St & 10 Ave",40.770513,-73.988038,"W 59 St & 10 Ave","W 59 St & 10 Ave, New York, NY 10019, United States"
"177",177,"W 54 St & 9 Ave",40.76584941,-73.98690506,"W 54 St & 9 Ave","W 54 St & 9 Ave, New York, NY 10019, United States"
"178",178,"West St & Chambers St",40.71754834,-74.01322069,"West St & Chambers St","West St & Chambers St, New York, NY 10282, United States"
"179",179,"Bus Slip & State St",40.701907,-74.013942,"Bus Slip & State St","Bus Slip & State St, New York, NY 10004, United States"
"180",180,"E 7 St & Avenue A",40.72621788,-73.98379855,"E 7 St & Avenue A","E 7 St & Avenue A, New York, NY 10009, United States"
"181",181,"W 21 St & 6 Ave",40.74173969,-73.99415556,"W 21 St & 6 Ave","111 W 20th St, New York, NY 10011, USA"
"182",182,"Hancock St & Bedford Ave",40.68216564,-73.95399026,"Hancock St & Bedford Ave","Hancock St & Bedford Ave, Brooklyn, NY 11216, United States"
"183",183,"Macon St & Nostrand Ave",40.6809833854,-73.9500479759,"Macon St & Nostrand Ave","Macon St & Nostrand Ave, Brooklyn, NY 11216, United States"
"184",184,"St Marks Pl & 1 Ave",40.72779126,-73.98564945,"St Marks Pl & 1 Ave","St Marks Pl & 1 Ave, New York, NY 10003, United States"
"185",185,"E 4 St & 2 Ave",40.7262807,-73.98978041,"E 4 St & 2 Ave","E 4 St & 2 Ave, New York, NY 10003, United States"
"186",186,"E 45 St & 3 Ave",40.75255434,-73.97282625,"E 45 St & 3 Ave","E 45 St & 3 Ave, New York, NY 10017, United States"
"187",187,"E 52 St & 2 Ave",40.756014,-73.967416,"E 52 St & 2 Ave","E 52 St & 2 Ave, New York, NY 10022, United States"
"188",188,"W 27 St & 7 Ave",40.746647,-73.993915,"W 27 St & 7 Ave","W 27 St & 7 Ave, New York, NY 10001, United States"
"189",189,"Bedford Ave & S 9 St",40.70853074,-73.96408963,"Bedford Ave & S 9 St","Bedford Ave & S 9 St, Brooklyn, NY 11249, United States"
"190",190,"E 10 St & Avenue A",40.72740794,-73.98142006,"E 10 St & Avenue A","E 10 St & Avenue A, New York, NY 10009, United States"
"191",191,"W 24 St & 7 Ave",40.74487634,-73.99529885,"W 24 St & 7 Ave","W 24 St & 7 Ave, New York, NY 10011, United States"
"192",192,"8 Ave & W 52 St",40.76370739,-73.9851615,"8 Ave & W 52 St","8 Ave & W 52 St, New York, NY 10019, United States"
"193",193,"W 37 St & 10 Ave",40.75660359,-73.9979009,"W 37 St & 10 Ave","W 37 St & 10 Ave, New York, NY 10018, United States"
"194",194,"W 49 St & 8 Ave",40.76227205,-73.98788205,"W 49 St & 8 Ave","W 49 St & 8 Ave, New York, NY 10019, United States"
"195",195,"W 22 St & 8 Ave",40.74475148,-73.99915362,"W 22 St & 8 Ave","W 22 St & 8 Ave, New York, NY 10011, United States"
"196",196,"E 51 St & 1 Ave",40.75455731,-73.96592976,"E 51 St & 1 Ave","358 E 51st St, New York, NY 10022, USA"
"197",197,"1 Ave & E 44 St",40.75001986,-73.96905301,"1 Ave & E 44 St","1 Ave & E 44 St, New York, NY 10017, United States"
"198",198,"E 53 St & Madison Ave",40.7597108,-73.97402311,"E 53 St & Madison Ave","E 53 St & Madison Ave, New York, NY 10022, United States"
"199",199,"11 Ave & W 27 St",40.751396,-74.005226,"11 Ave & W 27 St","Starrett-Lehigh Building, 601 W 26th St, New York, NY 10001, USA"
"200",200,"W 20 St & 11 Ave",40.746745,-74.007756,"W 20 St & 11 Ave","545 W 20th St, New York, NY 10011, USA"
"201",201,"S 4 St & Wythe Ave",40.71285887,-73.96590294,"S 4 St & Wythe Ave","S 4 St & Wythe Ave, Brooklyn, NY 11249, United States"
"202",202,"E 20 St & 2 Ave",40.73587678,-73.98205027,"E 20 St & 2 Ave","E 20 St & 2 Ave, New York, NY 10003, United States"
"203",203,"W 22 St & 10 Ave",40.74691959,-74.00451887,"W 22 St & 10 Ave","493 W 22nd St, New York, NY 10011, USA"
"204",204,"Broadway & W 41 St",40.75513557,-73.98658032,"Broadway & W 41 St","Broadway & W 41 St, New York, NY 10036, United States"
"205",205,"W 25 St & 6 Ave",40.74395411,-73.99144871,"W 25 St & 6 Ave","W 25 St & 6 Ave, New York, NY 10010, United States"
"206",206,"Dean St & 4 Ave",40.68312489,-73.97895137,"Dean St & 4 Ave","35 4th Ave, Brooklyn, NY 11217, USA"
"207",207,"Broadway & W 56 St",40.7652654,-73.98192338,"Broadway & W 56 St","Broadway & W 56 St, New York, NY 10019, United States"
"208",208,"Broadway & W 53 St",40.76344058,-73.98268129,"Broadway & W 53 St","Broadway & W 53 St, New York, NY 10019, United States"
"209",209,"W 20 St & 8 Ave",40.74345335,-74.00004031,"W 20 St & 8 Ave","W 20 St & 8 Ave, New York, NY 10011, United States"
"210",210,"Grand St & Havemeyer St",40.71286844,-73.95698119,"Grand St & Havemeyer St","Grand St & Havemeyer St, Brooklyn, NY 11211, United States"
"211",211,"E 32 St & Park Ave",40.7457121,-73.98194829,"E 32 St & Park Ave","E 32 St & Park Ave, New York, NY 10016, United States"
"212",212,"Rivington St & Chrystie St",40.72110063,-73.9919254,"Rivington St & Chrystie St","Rivington St & Chrystie St, New York, NY 10002, United States"
"213",213,"5 Ave & E 29 St",40.7451677,-73.98683077,"5 Ave & E 29 St","5 Ave & E 29 St, New York, NY 10016, United States"
"214",214,"E 31 St & 3 Ave",40.74394314,-73.97966069,"E 31 St & 3 Ave","E 31 St & 3 Ave, New York, NY 10016, United States"
"215",215,"W 41 St & 8 Ave",40.75640548,-73.9900262,"W 41 St & 8 Ave","New York Times Bldg, 620 8th Ave, New York, NY 10018, USA"
"216",216,"11 Ave & W 41 St",40.76030096,-73.99884222,"11 Ave & W 41 St","678 W 41st St, New York, NY 10018, USA"
"217",217,"9 Ave & W 45 St",40.76019252,-73.9912551,"9 Ave & W 45 St","9 Ave & W 45 St, New York, NY 10036, United States"
"218",218,"W 53 St & 10 Ave",40.76669671,-73.99061728,"W 53 St & 10 Ave","503 W 53rd St, New York, NY 10019, USA"
"219",219,"S 3 St & Bedford Ave",40.71260486,-73.96264403,"S 3 St & Bedford Ave","S 3 St & Bedford Ave, Brooklyn, NY 11249, United States"
"220",220,"W 15 St & 7 Ave",40.73935542,-73.99931783,"W 15 St & 7 Ave","W 15 St & 7 Ave, New York, NY 10011, United States"
"221",221,"E 12 St & 3 Ave",40.73223272,-73.98889957,"E 12 St & 3 Ave","126 E 12th St, New York, NY 10003, USA"
"222",222,"W 44 St & 5 Ave",40.75500254,-73.98014437,"W 44 St & 5 Ave","530 5th Ave, New York, NY 10036, USA"
"223",223,"W 37 St & 5 Ave",40.75038009,-73.98338988,"W 37 St & 5 Ave","W 37 St & 5 Ave, New York, NY 10018, United States"
"224",224,"Broadway & W 29 St",40.7462009,-73.98855723,"Broadway & W 29 St","Broadway & W 29 St, New York, NY 10001, United States"
"225",225,"E 20 St & FDR Drive",40.73314259,-73.97573881,"E 20 St & FDR Drive","E 20 St & FDR Drive, New York, NY 10009, United States"
"226",226,"8 Ave & W 33 St",40.751551,-73.993934,"8 Ave & W 33 St","8 Ave & W 33 St, New York, NY 10001, United States"
"227",227,"E 24 St & Park Ave S",40.74096374,-73.98602213,"E 24 St & Park Ave S","E 24 St & Park Ave S, New York, NY 10010, United States"
"228",228,"W 33 St & 7 Ave",40.75019995,-73.99093085,"W 33 St & 7 Ave","W 33 St & 7 Ave, New York, NY 10001, United States"
"229",229,"W 45 St & 6 Ave",40.7568001,-73.98291153,"W 45 St & 6 Ave","100 W 45th St, New York, NY 10036, USA"
"230",230,"W 26 St & 8 Ave",40.74734825,-73.99723551,"W 26 St & 8 Ave","W 26 St & 8 Ave, New York, NY 10001, United States"
"231",231,"W 47 St & 10 Ave",40.76269882,-73.99301222,"W 47 St & 10 Ave","W 47 St & 10 Ave, New York, NY 10036, United States"
"232",232,"E 16 St & 5 Ave",40.73726186,-73.99238967,"E 16 St & 5 Ave","E 16 St & 5 Ave, New York, NY 10003, United States"
"233",233,"E 17 St & Broadway",40.73704984,-73.99009296,"E 17 St & Broadway","E 17 St & Broadway, New York, NY 10003, United States"
"234",234,"Broadway & W 32 St",40.74854862,-73.98808416,"Broadway & W 32 St","Broadway & W 32 St, New York, NY 10001, United States"
"235",235,"Broadway & W 60 St",40.76915505,-73.98191841,"Broadway & W 60 St","Broadway & W 60 St, New York, NY 10023, United States"
"236",236,"Broadway & W 51 St",40.76228826,-73.98336183,"Broadway & W 51 St","Broadway & W 51 St, New York, NY 10019, United States"
"237",237,"FDR Drive & E 35 St",40.744219,-73.97121214,"FDR Drive & E 35 St","FDR Drive & E 35 St, New York, NY 10016, United States"
"238",238,"Henry St & Grand St",40.714215,-73.981346,"Henry St & Grand St","Henry St & Grand St, New York, NY 10002, United States"
"239",239,"E 20 St & Park Ave",40.73827428,-73.98751968,"E 20 St & Park Ave","E 20 St & Park Ave, New York, NY 10003, United States"
"240",240,"1 Ave & E 16 St",40.73221853,-73.98165557,"1 Ave & E 16 St","1 Ave & E 16 St, New York, NY 10009, United States"
"241",241,"6 Ave & W 33 St",40.74901271,-73.98848395,"6 Ave & W 33 St","6 Ave & W 33 St, New York, NY 10001, United States"
"242",242,"E 25 St & 2 Ave",40.73912601,-73.97973776,"E 25 St & 2 Ave","E 25 St & 2 Ave, New York, NY 10010, United States"
"243",243,"W 46 St & 11 Ave",40.76341379,-73.99667444,"W 46 St & 11 Ave","623 11th Ave, New York, NY 10036, USA"
"244",244,"9 Ave & W 22 St",40.7454973,-74.00197139,"9 Ave & W 22 St","9 Ave & W 22 St, New York, NY 10011, United States"
"245",245,"W 56 St & 10 Ave",40.768254,-73.988639,"W 56 St & 10 Ave","W 56 St & 10 Ave, New York, NY 10019, United States"
"246",246,"12 Ave & W 40 St",40.76087502,-74.00277668,"12 Ave & W 40 St","451 Bond St, New York, NY 10018, USA"
"247",247,"W 43 St & 10 Ave",40.76009437,-73.99461843,"W 43 St & 10 Ave","W 43 St & 10 Ave, New York, NY 10036, United States"
"248",248,"E 47 St & 1 Ave",40.75206862,-73.96784384,"E 47 St & 1 Ave","E 47 St & 1 Ave, New York, NY 10017, United States"
"249",249,"Pershing Square South",40.751581,-73.97791,"Pershing Square South","Pershing Square South, New York, NY 10168, United States"
"250",250,"E 39 St & 2 Ave",40.74780373,-73.9734419,"E 39 St & 2 Ave","E 39 St & 2 Ave, New York, NY 10016, United States"
"251",251,"Pershing Square North",40.751873,-73.977706,"Pershing Square North","125 Park Ave, New York, NY 10017, USA"
"252",252,"W 52 St & 5 Ave",40.75992262,-73.97648516,"W 52 St & 5 Ave","W 52 St & 5 Ave, New York, NY 10019, United States"
"253",253,"E 51 St & Lexington Ave",40.75714758,-73.97207836,"E 51 St & Lexington Ave","General Electric Building, 570 Lexington Ave, New York, NY 10022, USA"
"254",254,"W 38 St & 8 Ave",40.75466591,-73.99138152,"W 38 St & 8 Ave","570 8th Ave, New York, NY 10018, USA"
"255",255,"W 43 St & 6 Ave",40.75527307,-73.98316936,"W 43 St & 6 Ave","W 43 St & 6 Ave, New York, NY 10036, United States"
"256",256,"W 34 St & 11 Ave",40.75594159,-74.0021163,"W 34 St & 11 Ave","616 W 34th St, New York, NY 10001, USA"
"257",257,"E 33 St & 5 Ave",40.74765947,-73.98490707,"E 33 St & 5 Ave","E 33 St & 5 Ave, New York, NY 10016, United States"
"258",258,"2 Ave & E 31 St",40.74290902,-73.97706058,"2 Ave & E 31 St","2 Ave & E 31 St, New York, NY 10016, United States"
"259",259,"W 42 St & 8 Ave",40.7575699,-73.99098507,"W 42 St & 8 Ave","Port Authority Bus Terminal, New York, NY, New York, NY 10018, USA"
"260",260,"11 Ave & W 59 St",40.7714967105444,-73.9904603362083,"11 Ave & W 59 St","11 Ave & W 59 St, New York, NY 10019, United States"
"261",261,"Forsyth St & Broome St",40.71893904,-73.99266288,"Forsyth St & Broome St","Forsyth St & Broome St, New York, NY 10002, United States"
"262",262,"S 5 Pl & S 5 St",40.710451,-73.960876,"S 5 Pl & S 5 St","S 5 Pl & S 5 St, Brooklyn, NY 11211, United States"
"263",263,"Broadway & W 38 St",40.75299641,-73.98721619,"Broadway & W 38 St","Broadway & W 38 St, New York, NY 10018, United States"
"264",264,"Water - Whitehall Plaza",40.70255065,-74.0127234,"Water - Whitehall Plaza","Water - Whitehall Plaza, New York, NY 10004, United States"
"265",265,"1 Ave & E 30 St",40.74144387,-73.97536082,"1 Ave & E 30 St","1 Ave & E 30 St, New York, NY 10016, United States"
"266",266,"Metropolitan Ave & Bedford Ave",40.71534825,-73.96024116,"Metropolitan Ave & Bedford Ave","Metropolitan Ave & Bedford Ave, Brooklyn, NY 11211, United States"
"267",267,"Lexington Ave & E 29 St",40.7431155537649,-73.9821535348892,"Lexington Ave & E 29 St","Lexington Ave & E 29 St, New York, NY 10016, United States"
"268",268,"E 23 St & 1 Ave",40.736502,-73.97809472,"E 23 St & 1 Ave","E 23 St & 1 Ave, New York, NY 10010, United States"
"269",269,"E 30 St & Park Ave S",40.74444921,-73.98303529,"E 30 St & Park Ave S","441 Park Ave S, New York, NY 10016, USA"
"270",270,"Front St & Washington St",40.70255088,-73.98940236,"Front St & Washington St","55 Washington St, Brooklyn, NY 11201, USA"
"271",271,"Wythe Ave & Metropolitan Ave",40.716887,-73.963198,"Wythe Ave & Metropolitan Ave","Wythe Ave & Metropolitan Ave, Brooklyn, NY 11249, United States"
"272",272,"1 Ave & E 18 St",40.7338121919663,-73.9805442094803,"1 Ave & E 18 St","1 Ave & E 18 St, New York, NY 10009, United States"
"273",273,"Railroad Ave & Kay Ave",40.70531194,-73.97100056,"Railroad Ave & Kay Ave","Railroad Ave & Kay Ave, Brooklyn, NY 11249, United States"
"274",274,"Central Park S & 6 Ave",40.76590936,-73.97634151,"Central Park S & 6 Ave","Central Park S & 6 Ave, New York, NY 10019, United States"
"275",275,"Little West St & 1 Pl",40.70569254,-74.01677685,"Little West St & 1 Pl","Little West St & 1 Pl, New York, NY 10004, United States"
"276",276,"Catherine St & Monroe St",40.71117444,-73.99682619,"Catherine St & Monroe St","Catherine St & Monroe St, New York, NY 10038, United States"
"277",277,"Grand St & Greene St",40.72165481,-74.00234737,"Grand St & Greene St","Grand St & Greene St, New York, NY 10013, United States"
"278",278,"E 27 St & 1 Ave",40.739445,-73.976806,"E 27 St & 1 Ave","E 27 St & 1 Ave, New York, NY 10016, United States"
"279",279,"E 43 St & 2 Ave",40.75022392,-73.97121414,"E 43 St & 2 Ave","E 43 St & 2 Ave, New York, NY 10017, United States"
"280",280,"W 45 St & 8 Ave",40.75929124,-73.98859651,"W 45 St & 8 Ave","W 45 St & 8 Ave, New York, NY 10036, United States"
"281",281,"E 60 St & York Ave",40.759107,-73.959223,"E 60 St & York Ave","E 60 St & York Ave, New York, NY 10022, United States"
"282",282,"E 55 St & Lexington Ave",40.75968085,-73.97031366,"E 55 St & Lexington Ave","E 55 St & Lexington Ave, New York, NY 10022, United States"
"283",283,"South End Ave & Liberty St",40.711512,-74.015756,"South End Ave & Liberty St","South End Ave & Liberty St, New York, NY 10280, United States"
"284",284,"Kent Ave & N 7 St",40.7203677529846,-73.9616507291794,"Kent Ave & N 7 St","Kent Ave & N 7 St, Brooklyn, NY 11249, United States"
"285",285,"Kingston Ave & Herkimer St",40.67890679,-73.94142771,"Kingston Ave & Herkimer St","Kingston Ave & Herkimer St, Brooklyn, NY 11213, United States"
"286",286,"Fulton St & Utica Ave",40.6794268,-73.9298911,"Fulton St & Utica Ave","Fulton St & Utica Ave, Brooklyn, NY 11233, United States"
"287",287,"Lewis Ave & Decatur St",40.6814598,-73.934903,"Lewis Ave & Decatur St","Lewis Ave & Decatur St, Brooklyn, NY 11233, United States"
"288",288,"Albany Ave & Fulton St",40.6800105,-73.938475,"Albany Ave & Fulton St","Albany Ave & Fulton St, Brooklyn, NY 11216, United States"
"289",289,"Marcus Garvey Blvd & Macon St",40.682601,-73.938037,"Marcus Garvey Blvd & Macon St","Marcus Garvey Blvd & Macon St, Brooklyn, NY 11216, United States"
"290",290,"Halsey St & Tompkins Ave",40.6823687,-73.944118,"Halsey St & Tompkins Ave","Halsey St & Tompkins Ave, Brooklyn, NY 11216, United States"
"291",291,"Putnam Ave & Nostrand Ave",40.68402,-73.94977,"Putnam Ave & Nostrand Ave","Putnam Ave & Nostrand Ave, Brooklyn, NY 11216, United States"
"292",292,"Cambridge Pl & Gates Ave",40.68488,-73.96304,"Cambridge Pl & Gates Ave","Cambridge Pl & Gates Ave, Brooklyn, NY 11238, United States"
"293",293,"Putnam Ave & Throop Ave",40.6851532,-73.94111,"Putnam Ave & Throop Ave","Putnam Ave & Throop Ave, Brooklyn, NY 11221, United States"
"294",294,"Lewis Ave & Madison St",40.686312,-73.935775,"Lewis Ave & Madison St","Lewis Ave & Madison St, Brooklyn, NY 11221, United States"
"295",295,"Marcy Ave & Lafayette Ave",40.6900815,-73.947915,"Marcy Ave & Lafayette Ave","Lafayette Av/Marcy Av, Brooklyn, NY 11216, USA"
"296",296,"Greene Ave & Throop Ave",40.6894932,-73.942061,"Greene Ave & Throop Ave","Greene Ave & Throop Ave, Brooklyn, NY 11221, United States"
"297",297,"Greene Ave & Nostrand Ave",40.6883337,-73.950916,"Greene Ave & Nostrand Ave","Greene Ave & Nostrand Ave, Brooklyn, NY 11216, United States"
"298",298,"Kosciuszko St & Nostrand Ave",40.69072549,-73.95133465,"Kosciuszko St & Nostrand Ave","Kosciuszko St & Nostrand Ave, Brooklyn, NY 11216, United States"
"299",299,"Kosciuszko St & Tompkins Ave",40.69128258,-73.9452416,"Kosciuszko St & Tompkins Ave","Kosciuszko St & Tompkins Ave, Brooklyn, NY 11221, United States"
"300",300,"Lewis Ave & Kosciuszko St",40.69237074,-73.93705428,"Lewis Ave & Kosciuszko St","Lewis Ave & Kosciuszko St, Brooklyn, NY 11221, United States"
"301",301,"Pulaski St & Marcus Garvey Blvd",40.6933982,-73.939877,"Pulaski St & Marcus Garvey Blvd","Pulaski St & Marcus Garvey Blvd, Brooklyn, NY 11221, United States"
"302",302,"Willoughby Ave & Tompkins Ave",40.69425403,-73.94626915,"Willoughby Ave & Tompkins Ave","Willoughby Ave & Tompkins Ave, Brooklyn, NY 11206, United States"
"303",303,"Throop Ave & Myrtle Ave",40.69622937,-73.94371094,"Throop Ave & Myrtle Ave","Throop Ave & Myrtle Ave, Brooklyn, NY 11206, United States"
"304",304,"Myrtle Ave & Marcy Ave",40.69539817,-73.94954908,"Myrtle Ave & Marcy Ave","Myrtle Ave & Marcy Ave, Brooklyn, NY 11206, United States"
"305",305,"Nostrand Ave & Myrtle Ave",40.69527008,-73.95238108,"Nostrand Ave & Myrtle Ave","Nostrand Ave & Myrtle Ave, Brooklyn, NY 11205, United States"
"306",306,"Myrtle Ave & Lewis Ave",40.69681963,-73.93756926,"Myrtle Ave & Lewis Ave","Myrtle Ave & Lewis Ave, Brooklyn, NY 11206, United States"
"307",307,"Union Ave & Wallabout St",40.70029511,-73.95032283,"Union Ave & Wallabout St","Union Ave & Wallabout St, Brooklyn, NY 11206, United States"
"308",308,"Tompkins Ave & Hopkins St",40.69957608,-73.94708417,"Tompkins Ave & Hopkins St","Tompkins Ave & Hopkins St, Brooklyn, NY 11206, United States"
"309",309,"Broadway & Whipple St",40.7016657,-73.9437303,"Broadway & Whipple St","Broadway & Whipple St, Brooklyn, NY 11206, United States"
"310",310,"Humboldt St & Varet St",40.7031724,-73.940636,"Humboldt St & Varet St","Humboldt St & Varet St, Brooklyn, NY 11206, United States"
"311",311,"Lorimer St & Broadway",40.70411791,-73.94818595,"Lorimer St & Broadway","Lorimer St & Broadway, Brooklyn, NY 11206, United States"
"312",312,"McKibbin St & Manhattan Ave",40.70510918,-73.94407279,"McKibbin St & Manhattan Ave","99 Mckibben Ct, Brooklyn, NY 11206, USA"
"313",313,"Boerum St & Broadway",40.70538077,-73.94976519,"Boerum St & Broadway","Boerum St & Broadway, Brooklyn, NY 11206, United States"
"314",314,"Leonard St & Boerum St",40.70583339,-73.94644578,"Leonard St & Boerum St","Leonard St & Boerum St, Brooklyn, NY 11206, United States"
"315",315,"Montrose Ave & Bushwick Ave",40.70767788,-73.94016171,"Montrose Ave & Bushwick Ave","Montrose Ave & Bushwick Ave, Brooklyn, NY 11206, United States"
"316",316,"Division Ave & Marcy Ave",40.70708701,-73.95796783,"Division Ave & Marcy Ave","Division Ave & Marcy Ave, Brooklyn, NY 11211, United States"
"317",317,"Scholes St & Manhattan Ave",40.70870368,-73.9448625,"Scholes St & Manhattan Ave","Scholes St & Manhattan Ave, Brooklyn, NY 11206, United States"
"318",318,"Stagg St & Union Ave",40.70877084,-73.95095259,"Stagg St & Union Ave","Stagg St & Union Ave, Brooklyn, NY 11211, United States"
"319",319,"Broadway & Roebling St",40.7092482627616,-73.9606314897537,"Broadway & Roebling St","Broadway & Roebling St, Brooklyn, NY 11211, United States"
"320",320,"S 4 St & Rodney St",40.70934,-73.95608,"S 4 St & Rodney St","S 4 St/Rodney St, Brooklyn, NY 11211, USA"
"321",321,"Graham Ave & Grand St",40.711863,-73.944024,"Graham Ave & Grand St","Graham Ave & Grand St, Brooklyn, NY 11211, United States"
"322",322,"Hope St & Union Ave",40.71167351,-73.95141312,"Hope St & Union Ave","Hope St & Union Ave, Brooklyn, NY 11211, United States"
"323",323,"Bushwick Ave & Powers St",40.71247661,-73.94100005,"Bushwick Ave & Powers St","Bushwick Ave & Powers St, Brooklyn, NY 11211, United States"
"324",324,"Roebling St & N 4 St",40.71469,-73.95739,"Roebling St & N 4 St","Roebling St & N 4 St, Brooklyn, NY 11211, United States"
"325",325,"Graham Ave & Conselyea St",40.715143,-73.944507,"Graham Ave & Conselyea St","Graham Ave & Conselyea St, Brooklyn, NY 11211, United States"
"326",326,"Metropolitan Ave & Meeker Ave",40.71413311,-73.95234386,"Metropolitan Ave & Meeker Ave","Metropolitan Ave & Meeker Ave, Brooklyn, NY 11211, United States"
"327",327,"Union Ave & Jackson St",40.7160751,-73.952029,"Union Ave & Jackson St","Union Ave & Jackson St, Brooklyn, NY 11211, United States"
"328",328,"Frost St & Meeker St",40.71764,-73.94882,"Frost St & Meeker St","Frost St & Meeker Ave, Brooklyn, NY 11211, United States"
"329",329,"Berry St & N 8 St",40.7190095,-73.95852515,"Berry St & N 8 St","Berry St & N 8 St, Brooklyn, NY 11249, United States"
"330",330,"N 6 St & Bedford Ave",40.71745169,-73.95850939,"N 6 St & Bedford Ave","N 6 St & Bedford Ave, Brooklyn, NY 11249, United States"
"331",331,"Graham Ave & Withers St",40.7169811,-73.94485918,"Graham Ave & Withers St","Graham Ave & Withers St, Brooklyn, NY 11211, United States"
"332",332,"Graham Ave & Herbert St",40.71929301,-73.94500379,"Graham Ave & Herbert St","Graham Ave & Herbert St, Brooklyn, NY 11222, United States"
"333",333,"Union Ave & N 12 St",40.71924,-73.95242,"Union Ave & N 12 St","Union Ave & N 12 St, Brooklyn, NY 11211, United States"
"334",334,"Nassau Ave & Newell St",40.7248125644002,-73.947526216507,"Nassau Ave & Newell St","Nassau Ave & Newell St, Brooklyn, NY 11222, United States"
"335",335,"N 12 St & Bedford Ave",40.72079821,-73.95484712,"N 12 St & Bedford Ave","N 12 St & Bedford Ave, Brooklyn, NY 11249, United States"
"336",336,"Driggs Ave & Lorimer St",40.72179134,-73.9504154,"Driggs Ave & Lorimer St","Driggs Ave & Lorimer St, Brooklyn, NY 11222, United States"
"337",337,"N 15 St & Wythe Ave",40.724055,-73.955736,"N 15 St & Wythe Ave","N 15 St & Wythe Ave, Brooklyn, NY 11249, United States"
"338",338,"Driggs Ave & N Henry St",40.72325,-73.94308,"Driggs Ave & N Henry St","Driggs Ave & N Henry St, Brooklyn, NY 11222, United States"
"339",339,"Bedford Ave & Nassau Ave",40.72311651,-73.95212324,"Bedford Ave & Nassau Ave","Bedford Ave & Nassau Ave, Brooklyn, NY 11222, United States"
"340",340,"Nassau Ave & Russell St",40.72557,-73.94434,"Nassau Ave & Russell St","Nassau Ave & Russell St, Brooklyn, NY 11222, United States"
"341",341,"Banker St & Meserole Ave",40.72606,-73.95621,"Banker St & Meserole Ave","Banker St & Meserole Ave, Brooklyn, NY 11222, United States"
"342",342,"Meserole Ave & Manhattan Ave",40.72708584,-73.95299117,"Meserole Ave & Manhattan Ave","Meserole Ave & Manhattan Ave, Brooklyn, NY 11222, United States"
"343",343,"Milton St & Franklin St",40.72906,-73.95779,"Milton St & Franklin St","Milton St & Franklin St, Brooklyn, NY 11222, United States"
"344",344,"Greenpoint Ave & Manhattan Ave",40.73026,-73.95394,"Greenpoint Ave & Manhattan Ave","Greenpoint Ave & Manhattan Ave, Brooklyn, NY 11222, United States"
"345",345,"India St & Manhattan Ave",40.73232194,-73.9550858,"India St & Manhattan Ave","India St & Manhattan Ave, Brooklyn, NY 11222, United States"
"346",346,"Huron St & Franklin St",40.73266,-73.95826,"Huron St & Franklin St","Huron St & Franklin St, Brooklyn, NY 11222, United States"
"347",347,"Franklin St & Dupont St",40.73564,-73.95866,"Franklin St & Dupont St","Franklin St & Dupont St, Brooklyn, NY 11222, United States"
"348",348,"McGuinness Blvd & Eagle St",40.73555,-73.95284,"McGuinness Blvd & Eagle St","McGuinness Blvd & Eagle St, Brooklyn, NY 11222, United States"
"349",349,"Vernon Blvd & 50 Ave",40.74232744,-73.95411749,"Vernon Blvd & 50 Ave","Vernon Blvd & 50 Ave, Long Island City, NY 11101, United States"
"350",350,"Jackson Ave & 46 Rd",40.74524768,-73.94733276,"Jackson Ave & 46 Rd","Jackson Ave & 46 Rd, Long Island City, NY 11101, United States"
"351",351,"48 Ave & 5 St",40.7443632870669,-73.9558732509613,"48 Ave & 5 St","4-95 48th Ave, Long Island City, NY 11109, USA"
"352",352,"31 St & Thomson Ave",40.74469738,-73.93540375,"31 St & Thomson Ave","31 St & Thomson Ave, Long Island City, NY 11101, United States"
"353",353,"46 Ave & 5 St",40.74731,-73.95451,"46 Ave & 5 St","5-25 46th Ave, Long Island City, NY 11101, USA"
"354",354,"45 Rd & 11 St",40.74708586,-73.94977234,"45 Rd & 11 St","45 Rd & 11 St, Long Island City, NY 11101, United States"
"355",355,"44 Dr & Jackson Ave",40.74718234,-73.9432635,"44 Dr & Jackson Ave","44 Dr & Jackson Ave, Long Island City, NY 11101, United States"
"356",356,"9 St & 44 Rd",40.74966,-73.9521,"9 St & 44 Rd","9 St & 44 Rd, Long Island City, NY 11101, United States"
"357",357,"21 St & 43 Ave",40.75052534,-73.94594845,"21 St & 43 Ave","21 St & 43 Ave, Long Island City, NY 11101, United States"
"358",358,"Queens Plaza North & Crescent St",40.75110165,-73.94073717,"Queens Plaza North & Crescent St","Queens Plaza North & Crescent St, Long Island City, NY 11101, United States"
"359",359,"21 St & Queens Plaza North",40.75325964,-73.94335788,"21 St & Queens Plaza North","21 St & Queens Plaza North, Long Island City, NY 11101, United States"
"360",360,"E 68 St & 3 Ave",40.7671284034954,-73.9622461795807,"E 68 St & 3 Ave","E 68 St & 3 Ave, New York, NY 10065, United States"
"361",361,"E 59 St & Madison Ave",40.76350532,-73.97109243,"E 59 St & Madison Ave","E 59 St & Madison Ave, New York, NY 10022, United States"
"362",362,"3 Ave & E 62 St",40.76312584,-73.96526895,"3 Ave & E 62 St","3 Ave & E 62 St, New York, NY 10065, United States"
"363",363,"E 75 St & 3 Ave",40.77112927,-73.95772297,"E 75 St & 3 Ave","E 75 St & 3 Ave, New York, NY 10021, United States"
"364",364,"5 Ave & E 63 St",40.766368,-73.971518,"5 Ave & E 63 St","5 Ave & E 63 St, New York, NY 10065, United States"
"365",365,"5 Ave & E 73 St",40.77282817,-73.96685276,"5 Ave & E 73 St","5 Ave & E 73 St, New York, NY 10021, United States"
"366",366,"E 72 St & Park Ave",40.7711828754066,-73.9640942215919,"E 72 St & Park Ave","E 72 St & Park Ave, New York, NY 10021, United States"
"367",367,"1 Ave & E 78 St",40.77140426,-73.9535166,"1 Ave & E 78 St","1 Ave & E 78 St, New York, NY 10075, United States"
"368",368,"1 Ave & E 68 St",40.76500525,-73.95818491,"1 Ave & E 68 St","1 Ave & E 68 St, New York, NY 10065, United States"
"369",369,"1 Ave & E 62 St",40.7612274,-73.96094022,"1 Ave & E 62 St","1 Ave & E 62 St, New York, NY 10065, United States"
"370",370,"5 Ave & E 78 St",40.7763214218227,-73.9642739295959,"5 Ave & E 78 St","5 Ave & E 78 St, New York, NY 10075, United States"
"371",371,"E 81 St & Park Ave",40.77677702,-73.9590097,"E 81 St & Park Ave","E 81 St & Park Ave, New York, NY 10028, United States"
"372",372,"E 84 St & Park Ave",40.77862688,-73.95772073,"E 84 St & Park Ave","993 Park Ave, New York, NY 10028, USA"
"373",373,"E 81 St & 3 Ave",40.77573034,-73.9567526,"E 81 St & 3 Ave","E 81 St & 3 Ave, New York, NY 10028, United States"
"374",374,"E 85 St & 3 Ave",40.77801203,-73.95407149,"E 85 St & 3 Ave","203 E 85th St, New York, NY 10028, USA"
"375",375,"E 84 St & 1 Ave",40.77565541,-73.95068615,"E 84 St & 1 Ave","E 84 St & 1 Ave, New York, NY 10028, United States"
"376",376,"E 85 St & York Ave",40.77536905,-73.94803392,"E 85 St & York Ave","E 85 St & York Ave, New York, NY 10028, United States"
"377",377,"E 81 St & York Ave",40.7728384,-73.94989233,"E 81 St & York Ave","E 81 St & York Ave, New York, NY 10028, United States"
"378",378,"3 Ave & E 71 St",40.76873687,-73.96119945,"3 Ave & E 71 St","3 Ave & E 71 St, New York, NY 10021, United States"
"379",379,"E 77 St & 3 Ave",40.77314236,-73.95856158,"E 77 St & 3 Ave","E 77 St & 3 Ave, New York, NY 10075, United States"
"380",380,"Lexington Ave & E 63 St",40.76440023,-73.96648977,"Lexington Ave & E 63 St","Lexington Ave & E 63 St, New York, NY 10065, United States"
"381",381,"E 72 St & York Ave",40.76663814,-73.95348296,"E 72 St & York Ave","E 72 St & York Ave, New York, NY 10021, United States"
"382",382,"East End Ave & E 86 St",40.77518615,-73.94446054,"East End Ave & E 86 St","East End Ave & E 86 St, New York, NY 10028, United States"
"383",383,"W 63 St & Broadway",40.77163851,-73.98261428,"W 63 St & Broadway","W 63 St & Broadway, New York, NY 10023, United States"
"384",384,"W 67 St & Broadway",40.77492513,-73.98266566,"W 67 St & Broadway","W 67 St & Broadway, New York, NY 10023, United States"
"385",385,"Central Park West & W 76 St",40.77896784,-73.97374737,"Central Park West & W 76 St","Central Park West & W 76 St, New York, NY 10024, United States"
"386",386,"W 76 St & Columbus Ave",40.7801839724239,-73.9772853255272,"W 76 St & Columbus Ave","W 76 St & Columbus Ave, New York, NY 10023, United States"
"387",387,"W 78 St & Broadway",40.78339981,-73.98093133,"W 78 St & Broadway","W 78 St & Broadway, New York, NY 10024, United States"
"388",388,"Central Park West & W 68 St",40.7734066,-73.97782542,"Central Park West & W 68 St","Central Park West & W 68 St, New York, NY 10023, United States"
"389",389,"Columbus Ave & W 72 St",40.7770575,-73.97898475,"Columbus Ave & W 72 St","Columbus Ave & W 72 St, New York, NY 10023, United States"
"390",390,"Central Park West & W 72 St",40.7757937668367,-73.9762057363987,"Central Park West & W 72 St","Central Park West & W 72 St, New York, NY 10023, United States"
"391",391,"Riverside Dr & W 72 St",40.7805779901033,-73.9856243133545,"Riverside Dr & W 72 St","Riverside Dr & W 72 St, New York, NY 10023, United States"
"392",392,"Amsterdam Ave & W 73 St",40.7796680900731,-73.9809304475784,"Amsterdam Ave & W 73 St","Amsterdam Ave & W 73 St, New York, NY 10023, United States"
"393",393,"Central Park West & W 85 St",40.78472675,-73.96961715,"Central Park West & W 85 St","Central Park West & W 85 St, New York, NY 10024, United States"
"394",394,"Riverside Dr & W 82 St",40.78720869,-73.98128127,"Riverside Dr & W 82 St","Riverside Dr & W 82 St, New York, NY 10024, United States"
"395",395,"W 84 St & Columbus Ave",40.78499979,-73.97283406,"W 84 St & Columbus Ave","W 84 St & Columbus Ave, New York, NY 10024, United States"
"396",396,"Amsterdam Ave & W 82 St",40.78524672,-73.97667321,"Amsterdam Ave & W 82 St","Amsterdam Ave & W 82 St, New York, NY 10024, United States"
"397",397,"W 74 St & Columbus Ave",40.7785669,-73.97754961,"W 74 St & Columbus Ave","W 74 St & Columbus Ave, New York, NY 10023, United States"
"398",398,"Riverside Blvd & W 67 St",40.777507027548,-73.9888858795166,"Riverside Blvd & W 67 St","Riverside Blvd & W 67 St, New York, NY 10069, United States"
"399",399,"W 70 St & Amsterdam Ave",40.77748046,-73.98288594,"W 70 St & Amsterdam Ave","W 70 St & Amsterdam Ave, New York, NY 10023, United States"
"400",400,"W 84 St & Broadway",40.7867947,-73.977112,"W 84 St & Broadway","W 84 St & Broadway, New York, NY 10024, United States"
"401",401,"Riverside Dr & W 78 St",40.78414472,-73.98362492,"Riverside Dr & W 78 St","Riverside Dr & W 78 St, New York, NY 10024, United States"
"402",402,"Park Ave & Marcus Garvey Blvd",40.698617,-73.941342,"Park Ave & Marcus Garvey Blvd","Park Ave & Marcus Garvey Blvd, Brooklyn, NY 11206, United States"
"403",403,"Brooklyn Bridge Park - Pier 2",40.69878,-73.99712,"Brooklyn Bridge Park - Pier 2","150 Columbia Heights, Brooklyn, NY 11201, USA"
"404",430,"47 Ave & 31 St",40.743,-73.93561,"47 Ave & 31 St","47 Ave & 31 St, Long Island City, NY 11101, United States"
"405",431,"E 55 St & 3 Ave",40.7589965596051,-73.9686539769173,"E 55 St & 3 Ave","E 55 St & 3 Ave, New York, NY 10022, United States"
"406",433,"W 82 St & Central Park West",40.78275,-73.97137,"W 82 St & Central Park West","W 82 St & Central Park West, New York, NY 10024, United States"
"407",434,"E 67 St & Park Ave",40.7678008014813,-73.9659208059311,"E 67 St & Park Ave","E 67 St & Park Ave, New York, NY 10065, United States"
"408",435,"Bond St & Fulton St",40.6896218879033,-73.9830426871777,"Bond St & Fulton St","Bond St & Fulton St, Brooklyn, NY 11201, United States"
"409",436,"E 48 St & 5 Ave",40.7572456791173,-73.978059142828,"E 48 St & 5 Ave","E 48 St & 5 Ave, New York, NY 10017, United States"
"410",437,"E 41 St & Madison Ave",40.752165280622,-73.9799219369888,"E 41 St & Madison Ave","E 41 St & Madison Ave, New York, NY 10017, United States"
"411",438,"W 42 St & Dyer Ave",40.7589848139963,-73.9937996864319,"W 42 St & Dyer Ave","W 42 St & Dyer Ave, New York, NY 10036, United States"
"412",439,"Monroe St & Tompkins Ave",40.686203,-73.944694,"Monroe St & Tompkins Ave","Monroe St & Tompkins Ave, Brooklyn, NY 11216, United States"
"413",440,"Schermerhorn St & Court St",40.6910292567797,-73.991833627224,"Schermerhorn St & Court St","Schermerhorn St & Court St, Brooklyn, NY 11201, United States"
"414",441,"E 58 St & 1 Ave",40.7589238637769,-73.9622622728348,"E 58 St & 1 Ave","E 58 St & 1 Ave, New York, NY 10022, United States"
"415",442,"University Pl & E 8 St",40.7314372408523,-73.9949034154415,"University Pl & E 8 St","University Pl & E 8 St, New York, NY 10003, United States"
"416",443,"Verona Pl & Fulton St",40.6803560840434,-73.9476791024208,"Verona Pl & Fulton St","Verona Pl & Fulton St, Brooklyn, NY 11216, United States"
"417",444,"Pier 40 - Hudson River Park",40.7277140777778,-74.011295735836,"Pier 40 - Hudson River Park","Pier 40 - Hudson River Park, New York, NY 10014, United States"
"418",445,"W 27 St & 10 Ave",40.7501815632568,-74.0021842718124,"W 27 St & 10 Ave","W 27 St & 10 Ave, New York, NY 10001, United States"
"419",446,"9 Ave & W 28 St",40.7493702419328,-73.9992338418961,"9 Ave & W 28 St","9 Ave & W 28 St, New York, NY 10001, United States"
"420",447,"Mercer St & Bleecker St",40.7270636334831,-73.9966213703155,"Mercer St & Bleecker St","Mercer St & Bleecker St, New York, NY 10012, United States"
"421",448,"Cooper Square & Astor Pl",40.7295149622495,-73.990752696991,"Cooper Square & Astor Pl","Cooper Square & Astor Pl, New York, NY 10003, United States"
"422",462,"5 Ave & E 88 St",40.78307,-73.95939,"5 Ave & E 88 St","5 Ave & E 88 St, New York, NY 10128, United States"
"423",463,"W 89 St & Columbus Ave",40.7882213,-73.97041561,"W 89 St & Columbus Ave","W 89 St & Columbus Ave, New York, NY 10024, United States"
"424",464,"E 88 St & Park Ave",40.78141070019,-73.9559590816498,"E 88 St & Park Ave","E 88 St & Park Ave, New York, NY 10128, United States"
"425",465,"W 87 St & Amsterdam Ave",40.78839,-73.9747,"W 87 St & Amsterdam Ave","W 87 St & Amsterdam Ave, New York, NY 10024, United States"
"426",466,"E 89 St & 3 Ave",40.7806284,-73.9521667,"E 89 St & 3 Ave","E 89 St & 3 Ave, New York, NY 10128, United States"
"427",467,"E 88 St & 1 Ave",40.778301,-73.9488134,"E 88 St & 1 Ave","E 88 St & 1 Ave, New York, NY 10128, United States"
"428",468,"W 90 St & Amsterdam Ave",40.7901794809508,-73.9728891849518,"W 90 St & Amsterdam Ave","W 90 St & Amsterdam Ave, New York, NY 10024, United States"
"429",469,"E 89 St & York Ave",40.7779453,-73.946041,"E 89 St & York Ave","E 89 St & York Ave, New York, NY 10128, United States"
"430",470,"5 Ave & E 93 St",40.7857851,-73.957481,"5 Ave & E 93 St","5 Ave & E 93 St, New York, NY 10128, United States"
"431",471,"W 92 St & Broadway",40.7921,-73.9739,"W 92 St & Broadway","W 92 St & Broadway, New York, NY 10025, United States"
"432",472,"E 91 St & Park Ave",40.7835016,-73.955327,"E 91 St & Park Ave","E 91 St & Park Ave, New York, NY 10128, United States"
"433",473,"Central Park W & W 96 St",40.79127,-73.964839,"Central Park W & W 96 St","Central Park W & W 96 St, New York, NY 10025, United States"
"434",474,"E 93 St & 2 Ave",40.7824541752799,-73.9489196240902,"E 93 St & 2 Ave","E 93 St & 2 Ave, New York, NY 10128, United States"
"435",475,"6 St & 7 Ave",40.6686627,-73.97988067,"6 St & 7 Ave","6 St & 7 Ave, Brooklyn, NY 11215, United States"
"436",476,"Warren St & Court St",40.686371,-73.99383324,"Warren St & Court St","Warren St & Court St, Brooklyn, NY 11201, United States"
"437",477,"E 98 St & Park Ave",40.78813,-73.95206,"E 98 St & Park Ave","1292 Park Ave, New York, NY 10029, USA"
"438",478,"Prospect Park West & 8 St",40.6651468153379,-73.9763760566711,"Prospect Park West & 8 St","135 Prospect Park West, Brooklyn, NY 11215, USA"
"439",479,"Columbus Ave & W 95 St",40.7919557,-73.968087,"Columbus Ave & W 95 St","Columbus Ave & W 95 St, New York, NY 10025, United States"
"440",480,"Columbus Ave & W 103 St",40.7969347,-73.9643412291,"Columbus Ave & W 103 St","Columbus Ave & W 103 St, New York, NY 10025, United States"
"441",481,"Butler St & Court St",40.6849894,-73.99440329,"Butler St & Court St","Butler St & Court St, Brooklyn, NY 11231, United States"
"442",482,"6 Ave & 9 St",40.668127,-73.98377641,"6 Ave & 9 St","6 Ave & 9 St, Brooklyn, NY 11215, United States"
"443",483,"E 91 St & 2 Ave",40.7811222993417,-73.9496558904648,"E 91 St & 2 Ave","1751 2nd Ave, New York, NY 10128, USA"
"444",484,"10 St & 7 Ave",40.6662078,-73.98199886,"10 St & 7 Ave","10 St & 7 Ave, Brooklyn, NY 11215, United States"
"445",485,"West End Ave & W 94 St",40.7941654,-73.974124,"West End Ave & W 94 St","West End Ave & W 94 St, New York, NY 10025, United States"
"446",486,"Kane St & Clinton St",40.6861758,-73.99645295,"Kane St & Clinton St","Kane St & Clinton St, Brooklyn, NY 11231, United States"
"447",487,"E 97 St & 3 Ave",40.7859201,-73.94860294,"E 97 St & 3 Ave","E 97 St & 3 Ave, New York, NY 10029, United States"
"448",488,"14 St & 7 Ave",40.663779,-73.98396846,"14 St & 7 Ave","14 St & 7 Ave, Brooklyn, NY 11215, United States"
"449",489,"Columbia St & Kane St",40.68763155,-74.0016256,"Columbia St & Kane St","Columbia St & Kane St, Brooklyn, NY 11231, United States"
"450",490,"1 Ave & E 94 St",40.7817212,-73.94594,"1 Ave & E 94 St","1805 1st Avenue, New York, NY 10128, USA"
"451",491,"6 Ave & 12 St",40.6663181,-73.9854617,"6 Ave & 12 St","6 Ave & 12 St, Brooklyn, NY 11215, United States"
"452",492,"W 95 St & Broadway",40.7937704,-73.971888,"W 95 St & Broadway","W 95 St & Broadway, New York, NY 10025, United States"
"453",493,"Henry St & Degraw St",40.6847514,-73.99917254,"Henry St & Degraw St","486 Henry St, Brooklyn, NY 11231, USA"
"454",494,"10 St & 5 Ave",40.6686273,-73.98700053,"10 St & 5 Ave","10 St & 5 Ave, Brooklyn, NY 11215, United States"
"455",495,"2 Ave & E 96 St",40.7839636,-73.9471673,"2 Ave & E 96 St","2 Ave & E 96 St, New York, NY 10128, United States"
"456",496,"14 St & 5 Ave",40.666287,-73.98895053,"14 St & 5 Ave","14 St & 5 Ave, Brooklyn, NY 11215, United States"
"457",497,"Central Park West & W 100 St",40.7940666081855,-73.9628684520721,"Central Park West & W 100 St","Central Park West & W 100 St, New York, NY 10025, United States"
"458",498,"Clinton St & Union St",40.6831164,-73.99785267,"Clinton St & Union St","Clinton St & Union St, Brooklyn, NY 11231, United States"
"459",499,"12 St & 4 Ave",40.668603,-73.9904394,"12 St & 4 Ave","12 St & 4 Ave, Brooklyn, NY 11215, United States"
"460",500,"W 106 St & Central Park West",40.7981856,-73.9605909006,"W 106 St & Central Park West","W 106 St & Central Park West, New York, NY 10025, United States"
"461",501,"3 Ave & 14 St",40.6685455,-73.99333264,"3 Ave & 14 St","3 Ave & 14 St, Brooklyn, NY 11215, United States"
"462",502,"Clinton St & Centre St",40.67434,-74.00194698,"Clinton St & Centre St","Clinton St & Centre St, Brooklyn, NY 11231, United States"
"463",503,"3 Ave & E 100 St",40.7877214,-73.94728331,"3 Ave & E 100 St","3 Ave & E 100 St, New York, NY 10029, United States"
"464",504,"W 100 St & Manhattan Ave",40.795,-73.9645,"W 100 St & Manhattan Ave","55 W 100th St, New York, NY 10025, USA"
"465",505,"Degraw St & Smith St",40.6829151,-73.99318208,"Degraw St & Smith St","Degraw St & Smith St, Brooklyn, NY 11231, United States"
"466",506,"Henry St & Bay St",40.6725058,-74.00494695,"Henry St & Bay St","Henry St & Bay St, Brooklyn, NY 11231, United States"
"467",507,"Riverside Dr & W 104 St",40.8013434,-73.9711457439,"Riverside Dr & W 104 St","Riverside Dr & W 104 St, New York, NY 10025, United States"
"468",508,"Degraw St & Hoyt St",40.681990442707,-73.9907902479172,"Degraw St & Hoyt St","Degraw St & Hoyt St, Brooklyn, NY 11217, United States"
"469",509,"Columbia St & Lorraine St",40.6747055,-74.0075572,"Columbia St & Lorraine St","Columbia St & Lorraine St, Brooklyn, NY 11231, United States"
"470",510,"Union St & 4 Ave",40.6772744,-73.98282002,"Union St & 4 Ave","Union St & 4 Ave, Brooklyn, NY 11215, United States"
"471",511,"E 97 St & Madison Ave",40.787801,-73.953559,"E 97 St & Madison Ave","E 97 St & Madison Ave, New York, NY 10029, United States"
"472",512,"Dwight St & Van Dyke St",40.673635513415,-74.0119555592537,"Dwight St & Van Dyke St","Dwight St & Van Dyke St, Brooklyn, NY 11231, United States"
"473",513,"2 Ave & E 99 St",40.7862586,-73.94552579,"2 Ave & E 99 St","2 Ave & E 99 St, New York, NY 10029, United States"
"474",514,"Berkeley Pl & 6 Ave",40.6765304,-73.97846879,"Berkeley Pl & 6 Ave","Berkeley Pl & 6 Ave, Brooklyn, NY 11217, United States"
"475",515,"Wolcott St & Dwight St",40.6753274,-74.0100698,"Wolcott St & Dwight St","Wolcott St & Dwight St, Brooklyn, NY 11231, United States"
"476",516,"Central Park West & W 102 St",40.795346,-73.96186,"Central Park West & W 102 St","Central Park West & W 102 St, New York, NY 10025, United States"
"477",517,"Pioneer St & Richards St",40.6777748,-74.0094613,"Pioneer St & Richards St","Pioneer St & Richards St, Brooklyn, NY 11231, United States"
"478",518,"W 107 St & Columbus Ave",40.7997568,-73.9621128676,"W 107 St & Columbus Ave","W 107 St & Columbus Ave, New York, NY 10025, United States"
"479",519,"Pioneer St & Van Brunt St",40.679043,-74.011169,"Pioneer St & Van Brunt St","Pioneer St & Van Brunt St, Brooklyn, NY 11231, United States"
"480",520,"Madison Ave & E 99 St",40.7894854155321,-73.9524292945862,"Madison Ave & E 99 St","Madison Ave & E 99 St, New York, NY 10029, United States"
"481",521,"Berkeley Pl & 7 Ave",40.6751468387098,-73.9752320945263,"Berkeley Pl & 7 Ave","Berkeley Pl & 7 Ave, Brooklyn, NY 11217, United States"
"482",522,"Van Brunt St & Wolcott St",40.6773429,-74.01275056,"Van Brunt St & Wolcott St","Van Brunt St & Wolcott St, Brooklyn, NY 11231, United States"
"483",523,"Coffey St & Conover St",40.677236,-74.015665,"Coffey St & Conover St","Coffey St & Conover St, Brooklyn, NY 11231, United States"
"484",524,"Grand Army Plaza & Plaza St West",40.6729679,-73.97087984,"Grand Army Plaza & Plaza St West","General Warren Statue, Brooklyn, NY 11238, USA"
"485",525,"W 100 St & Broadway",40.7973721,-73.97041192,"W 100 St & Broadway","W 100 St & Broadway, New York, NY 10025, United States"
"486",526,"E 102 St & 1 Ave",40.7869946,-73.94164802,"E 102 St & 1 Ave","E 102 St & 1 Ave, New York, NY 10029, United States"
"487",527,"Sigourney St & Columbia St",40.6726724341095,-74.0087952464819,"Sigourney St & Columbia St","Sigourney St & Columbia St, Brooklyn, NY 11231, United States"
"488",528,"3 St & Prospect Park West",40.668132,-73.97363831,"3 St & Prospect Park West","3rd Street & Prospect Park West, West Dr, Brooklyn, NY 11215, USA"
"489",529,"E 66 St & Madison Ave",40.7680088930595,-73.9684528112411,"E 66 St & Madison Ave","E 66 St & Madison Ave, New York, NY 10065, United States"
"490",530,"Amsterdam Ave & W 66 St",40.7746671,-73.98470567,"Amsterdam Ave & W 66 St","122 Amsterdam Ave, New York, NY 10023, USA"
"491",531,"W 106 St & Amsterdam Ave",40.8008363,-73.9664492472,"W 106 St & Amsterdam Ave","W 106 St & Amsterdam Ave, New York, NY 10025, United States"
"492",532,"Garfield Pl & 8 Ave",40.6711978,-73.97484126,"Garfield Pl & 8 Ave","Garfield Pl & 8 Ave, Brooklyn, NY 11215, United States"
"493",533,"E 68 St & Madison Ave",40.7691572,-73.96703464,"E 68 St & Madison Ave","E 68 St & Madison Ave, New York, NY 10065, United States"
"494",534,"Amsterdam Ave & W 79 St",40.7829391,-73.9786517,"Amsterdam Ave & W 79 St","Amsterdam Ave & W 79 St, New York, NY 10024, United States"
"495",535,"Carroll St & 6 Ave",40.6740886,-73.9787282,"Carroll St & 6 Ave","Carroll St & 6 Ave, Brooklyn, NY 11215, United States"
"496",536,"Madison Ave & E 82 St",40.7781314,-73.96069399,"Madison Ave & E 82 St","Madison Ave & E 82 St, New York, NY 10028, United States"
"497",537,"E 102 St & Park Ave",40.7904828,-73.95033068,"E 102 St & Park Ave","E 102 St & Park Ave, New York, NY 10029, United States"
"498",538,"Carroll St & 5 Ave",40.6751622,-73.9814832,"Carroll St & 5 Ave","Carroll St & 5 Ave, Brooklyn, NY 11215, United States"
"499",539,"3 St & 7 Ave",40.6703837,-73.97839676,"3 St & 7 Ave","3 St & 7 Ave, Brooklyn, NY 11215, United States"
"500",540,"West End Ave & W 107 St",40.8021174,-73.9681805305,"West End Ave & W 107 St","West End Ave & W 107 St, New York, NY 10025, United States"
"501",541,"5 Ave & E 103 St",40.7922553,-73.95249933,"5 Ave & E 103 St","5 Ave & E 103 St, New York, NY 10029, United States"
"502",542,"5 Ave & 3 St",40.6728155,-73.98352355,"5 Ave & 3 St","5 Ave & 3 St, Brooklyn, NY 11215, United States"
"503",543,"E 82 St & East End Ave",40.7724607,-73.9468208,"E 82 St & East End Ave","E 82 St & East End Ave, New York, NY 10028, United States"
"504",544,"E 78 St & 2 Ave",40.7727966,-73.95577801,"E 78 St & 2 Ave","E 78 St & 2 Ave, New York, NY 10075, United States"
"505",545,"4 Ave & 2 St",40.6746134224758,-73.9850114285946,"4 Ave & 2 St","4 Ave & 2 St, Brooklyn, NY 11215, United States"
"506",546,"E 74 St & 1 Ave",40.7689738,-73.95482273,"E 74 St & 1 Ave","E 74 St & 1 Ave, New York, NY 10021, United States"
"507",547,"3 St & 3 Ave",40.6750705,-73.98775226,"3 St & 3 Ave","3 St & 3 Ave, Brooklyn, NY 11215, United States"
"508",548,"Central Park North & Adam Clayton Powell Blvd",40.799484,-73.955613,"Central Park North & Adam Clayton Powell Blvd","Central Park North & Adam Clayton Powell Blvd, New York, NY 10026, United States"
"509",549,"3 Ave & E 72 St",40.7699426,-73.96060712,"3 Ave & E 72 St","165 E 72nd St, New York, NY 10021, USA"
"510",550,"E 65 St & 2 Ave",40.7647185194434,-73.962220698595,"E 65 St & 2 Ave","E 65 St & 2 Ave, New York, NY 10065, United States"
"511",551,"Carroll St & Bond St",40.6786115,-73.99037292,"Carroll St & Bond St","Carroll St & Bond St, Brooklyn, NY 11231, United States"
"512",552,"E 76 St & Park Ave",40.773763,-73.96222088,"E 76 St & Park Ave","E 76 St & Park Ave, New York, NY 10021, United States"
"513",553,"E 103 St & Lexington Ave",40.7903051,-73.94755757,"E 103 St & Lexington Ave","E 103 St & Lexington Ave, New York, NY 10029, United States"
"514",554,"3 St & Hoyt St",40.6777287,-73.99364123,"3 St & Hoyt St","3 St & Hoyt St, Brooklyn, NY 11231, United States"
"515",555,"Carroll St & Smith St",40.680611,-73.99475825,"Carroll St & Smith St","Carroll St & Smith St, Brooklyn, NY 11231, United States"
"516",556,"Cathedral Pkwy & Broadway",40.804213,-73.96699104,"Cathedral Pkwy & Broadway","Cathedral Pkwy & Broadway, New York, NY 10025, United States"
"517",557,"Smith St & 3 St",40.6787242,-73.99599099,"Smith St & 3 St","Smith St & 3 St, Brooklyn, NY 11231, United States"
"518",558,"1 Pl & Clinton St",40.6809591,-73.99905709,"1 Pl & Clinton St","1 Pl & Clinton St, Brooklyn, NY 11231, United States"
"519",559,"E 106 St & Madison Ave",40.7934337,-73.94945003,"E 106 St & Madison Ave","E 106 St & Madison Ave, New York, NY 10029, United States"
"520",560,"President St & Henry St",40.6828003,-73.99990419,"President St & Henry St","President St & Henry St, Brooklyn, NY 11231, United States"
"521",561,"Carroll St & Columbia St",40.6830456,-74.00348559,"Carroll St & Columbia St","Carroll St & Columbia St, Brooklyn, NY 11231, United States"
"522",562,"E 109 St & 3 Ave",40.79329668,-73.9432083,"E 109 St & 3 Ave","E 109 St & 3 Ave, New York, NY 10029, United States"
"523",563,"E 106 St & 1 Ave",40.7892529,-73.93956237,"E 106 St & 1 Ave","E 106 St & 1 Ave, New York, NY 10029, United States"
"524",564,"Commerce St & Van Brunt St",40.6812117,-74.00860912,"Commerce St & Van Brunt St","110 Commerce St, Brooklyn, NY 11231, USA"
"525",565,"Richards St & Delavan St",40.6794327,-74.00785041,"Richards St & Delavan St","Richards St & Delavan St, Brooklyn, NY 11231, United States"
"526",566,"Columbia St & W 9 St",40.6769993,-74.00647134,"Columbia St & W 9 St","Columbia St & W 9 St, Brooklyn, NY 11231, United States"
"527",567,"Henry St & W 9 St",40.6763744,-74.00324957,"Henry St & W 9 St","Henry St & W 9 St, Brooklyn, NY 11231, United States"
"528",568,"Clinton St & 4 Place",40.6783563,-74.00014502,"Clinton St & 4 Place","Clinton St & 4 Place, Brooklyn, NY 11231, United States"
"529",569,"Court St & Nelson St",40.6763947,-73.99869893,"Court St & Nelson St","Court St & Nelson St, Brooklyn, NY 11231, United States"
"530",570,"Smith St & 9 St",40.6746957,-73.99785768,"Smith St & 9 St","Smith St & 9 St, Brooklyn, NY 11231, United States"
"531",571,"7 St & 3 Ave",40.6726029815013,-73.9898300170898,"7 St & 3 Ave","7 St & 3 Ave, Brooklyn, NY 11215, United States"
"532",572,"E 110 St & Madison Ave",40.7961535,-73.94782145,"E 110 St & Madison Ave","E 110 St & Madison Ave, New York, NY 10029, United States"
"533",573,"2 Ave & 9 St",40.6724811,-73.99331394,"2 Ave & 9 St","2 Ave & 9 St, Brooklyn, NY 11215, United States"
"534",574,"Court St & State St",40.6902375,-73.99203074,"Court St & State St","Court St & State St, Brooklyn, NY 11201, United States"
"535",575,"4 Ave & 9 St",40.6705135,-73.98876585,"4 Ave & 9 St","4 Ave & 9 St, Brooklyn, NY 11215, United States"
"536",576,"7 St & 5 Ave",40.6704922,-73.98541675,"7 St & 5 Ave","7 St & 5 Ave, Brooklyn, NY 11215, United States"
"537",577,"5 St & 6 Ave",40.6704836,-73.98208968,"5 St & 6 Ave","5 St & 6 Ave, Brooklyn, NY 11215, United States"
"538",578,"Union St & Nevins St",40.6790979972168,-73.9876547455788,"Union St & Nevins St","Union St & Nevins St, Brooklyn, NY 11215, United States"
"539",579,"Congress St & Clinton St",40.6881529,-73.99520919,"Congress St & Clinton St","Congress St & Clinton St, Brooklyn, NY 11201, United States"
"540",580,"Bergen St & Smith St",40.6867443,-73.99063168,"Bergen St & Smith St","Bergen St & Smith St, Brooklyn, NY 11201, United States"
"541",581,"Dean St & Hoyt St",40.6864442,-73.98759104,"Dean St & Hoyt St","Dean St & Hoyt St, Brooklyn, NY 11217, United States"
"542",582,"Bond St & Bergen St",40.6849668,-73.98620772,"Bond St & Bergen St","Bond St & Bergen St, Brooklyn, NY 11217, United States"
"543",583,"Pacific St & Nevins St",40.6853761,-73.98302136,"Pacific St & Nevins St","Pacific St & Nevins St, Brooklyn, NY 11217, United States"
"544",584,"Wyckoff St & 3 Ave",40.6827549,-73.98258555,"Wyckoff St & 3 Ave","Wyckoff St & 3 Ave, Brooklyn, NY 11217, United States"
"545",585,"Bergen St & Flatbush Ave",40.6809447234773,-73.9756733179092,"Bergen St & Flatbush Ave","Bergen St & Flatbush Ave, Brooklyn, NY 11217, United States"
"546",586,"Prospect Pl & 6 Ave",40.6793307,-73.97519523,"Prospect Pl & 6 Ave","Prospect Pl & 6 Ave, Brooklyn, NY 11217, United States"
"547",587,"7 Ave & Park Pl",40.6776147,-73.97324283,"7 Ave & Park Pl","7 Ave & Park Pl, Brooklyn, NY 11217, United States"
"548",588,"Baltic St & 5 Ave",40.6795766,-73.97854971,"Baltic St & 5 Ave","120 5th Ave, Brooklyn, NY 11217, USA"
"549",589,"Plaza St West & Flatbush Ave",40.6750207,-73.97111473,"Plaza St West & Flatbush Ave","1 Plaza St W, Brooklyn, NY 11217, USA"
"550",590,"Douglass St & 4 Ave",40.6792788,-73.98154004,"Douglass St & 4 Ave","Douglass St & 4 Ave, Brooklyn, NY 11217, United States"
"551",591,"Douglass St & 3 Ave",40.6802133,-73.98432695,"Douglass St & 3 Ave","Douglass St & 3 Ave, Brooklyn, NY 11217, United States"
"552",592,"Columbia St & Degraw St",40.6859296,-74.00242364,"Columbia St & Degraw St","Columbia St & Degraw St, Brooklyn, NY 11231, United States"
"553",593,"West Drive & Prospect Park West",40.6610633719006,-73.9794525504112,"West Drive & Prospect Park West","15 Prospect Park West, Brooklyn, NY 11215, USA"
"554",594,"E 106 St & Lexington Ave",40.791976,-73.945993,"E 106 St & Lexington Ave","E 106 St & Lexington Ave, New York, NY 10029, United States"
"555",595,"2 Ave & E 104 St",40.7892105,-73.94370784,"2 Ave & E 104 St","2 Ave & E 104 St, New York, NY 10029, United States"
"556",596,"Lafayette St & Jersey St",40.7243052725033,-73.9960098266602,"Lafayette St & Jersey St","Lafayette St & Jersey St, New York, NY 10012, United States"
"557",597,"Hanson Pl & Ashland Pl",40.6850680730818,-73.9779075980186,"Hanson Pl & Ashland Pl","Hanson Pl & Ashland Pl, Brooklyn, NY 11217, United States"
"558",598,"Richardson St & N Henry St",40.7190789117956,-73.9422369003296,"Richardson St & N Henry St","Richardson St & N Henry St, Brooklyn, NY 11222, United States"
"559",599,"E 35 St & 3 Ave",40.746524,-73.977885,"E 35 St & 3 Ave","E 35 St & 3 Ave, New York, NY 10016, United States"
"560",600,"W 88 St & West End Ave",40.7902541733042,-73.9771834015846,"W 88 St & West End Ave","W 88 St & West End Ave, New York, NY 10024, United States"
"561",601,"Grand St & Elizabeth St",40.718822,-73.99596,"Grand St & Elizabeth St","Grand St & Elizabeth St, New York, NY 10013, United States"
"562",602,"Riverside Dr & W 91 St",40.7931348098666,-73.9770036935806,"Riverside Dr & W 91 St","Riverside Dr & W 91 St, New York, NY 10024, United States"
"563",603,"Fulton St & Adams St",40.6924182925785,-73.989494740963,"Fulton St & Adams St","Fulton St & Adams St, Brooklyn, NY 11201, United States"
"564",604,"Eckford St & Engert Ave",40.7214625622982,-73.9480090141296,"Eckford St & Engert Ave","Eckford St & Engert Ave, Brooklyn, NY 11222, United States"
"565",605,"Bayard St & Leonard St",40.7191557169604,-73.9488539099693,"Bayard St & Leonard St","Bayard St & Leonard St, Brooklyn, NY 11222, United States"
"566",606,"Devoe St & Lorimer St",40.7133522622288,-73.9491033554077,"Devoe St & Lorimer St","Devoe St & Lorimer St, Brooklyn, NY 11211, United States"
"567",607,"Leonard St & Maujer St",40.7103685423523,-73.9470595121384,"Leonard St & Maujer St","Leonard St & Maujer St, Brooklyn, NY 11206, United States"
"568",608,"Jackson St & Leonard St",40.7163803197356,-73.9482128620148,"Jackson St & Leonard St","Jackson St & Leonard St, Brooklyn, NY 11211, United States"
"569",609,"E 58 St & Madison Ave",40.7630259428052,-73.9720952510834,"E 58 St & Madison Ave","E 58 St & Madison Ave, New York, NY 10022, United States"
"570",610,"W 55 St & 6 Ave",40.763093872708,-73.9783501625061,"W 55 St & 6 Ave","W 55 St & 6 Ave, New York, NY 10019, United States"
"571",611,"E 53 St & 3 Ave",40.7576322773944,-73.9693057537079,"E 53 St & 3 Ave","E 53 St & 3 Ave, New York, NY 10022, United States"
"572",612,"Murray St & Greenwich St",40.7148515052625,-74.0112233161926,"Murray St & Greenwich St","Murray St & Greenwich St, New York, NY 10007, United States"
"573",613,"E 16 St & Irving Pl",40.7353670556054,-73.9879739284515,"E 16 St & Irving Pl","E 16 St & Irving Pl, New York, NY 10003, United States"
"574",614,"W Broadway & Spring Street",40.7249467235942,-74.0016585588455,"W Broadway & Spring Street","W Broadway & Spring Street, New York, NY 10012, United States"
"575",615,"India St & West St",40.7318140172097,-73.9599502086639,"India St & West St","India St & West St, Brooklyn, NY 11222, United States"
"576",616,"W 15 St & 10 Ave",40.742753828659,-74.0074735879898,"W 15 St & 10 Ave","75 9th Ave, New York, NY 10011, USA"
"577",617,"6 Ave & Spring St",40.7252556952547,-74.0041208267212,"6 Ave & Spring St","6 Ave & Spring St, New York, NY 10013, United States"
"578",618,"39 St & 2 Ave - Citi Bike HQ at Industry City",40.6553997744783,-74.0106278657913,"39 St & 2 Ave - Citi Bike HQ at Industry City","39 St & 2 Ave - Citi Bike HQ at Industry City, Brooklyn, NY 11232, United States"
"579",619,"2 Ave & 36 St - Citi Bike HQ at Industry City",40.6570886666848,-74.0087020397186,"2 Ave & 36 St - Citi Bike HQ at Industry City","2 Ave & 36 St - Citi Bike HQ at Industry City, Brooklyn, NY 11232, United States"
"580",622,"Schermerhorn St & Bond St",40.6884174275408,-73.9845165610313,"Schermerhorn St & Bond St","Schermerhorn St & Bond St, Brooklyn, NY 11201, United States"
"581",623,"E 116 St & 2 Ave",40.796879,-73.937261,"E 116 St & 2 Ave","E 116 St & 2 Ave, New York, NY 10029, United States"
"582",624,"E 118 St & 1 Ave",40.79747,-73.93504,"E 118 St & 1 Ave","E 118 St & 1 Ave, New York, NY 10035, United States"
"583",625,"E 118 St & Park Ave",40.8005385,-73.9419949,"E 118 St & Park Ave","E 118 St & Park Ave, New York, NY 10035, United States"
"584",626,"E 118 St & 3 Ave",40.799139,-73.9389152,"E 118 St & 3 Ave","E 118 St & 3 Ave, New York, NY 10035, United States"
"585",627,"E 115 St & Lexington Ave",40.797911,-73.9423,"E 115 St & Lexington Ave","E 115 St & Lexington Ave, New York, NY 10029, United States"
"586",628,"E 114 St & 1 Ave",40.7945663,-73.9362541,"E 114 St & 1 Ave","E 114 St & 1 Ave, New York, NY 10029, United States"
"587",629,"1 Ave & E 110 St",40.7923272,-73.9383,"1 Ave & E 110 St","1 Ave & E 110 St, New York, NY 10029, United States"
"588",630,"Pleasant Ave & E 116 St",40.7949879,-73.9333349,"Pleasant Ave & E 116 St","Pleasant Ave & E 116 St, New York, NY 10029, United States"
"589",631,"Pleasant Ave & E 120 St",40.7974772,-73.9311847,"Pleasant Ave & E 120 St","Pleasant Ave & E 120 St, New York, NY 10035, United States"
"590",632,"2 Ave & E 122 St",40.8006721,-73.9349,"2 Ave & E 122 St","2 Ave & E 122 St, New York, NY 10035, United States"
"591",633,"E 115 St & Madison Ave",40.7989445,-73.944846,"E 115 St & Madison Ave","57 E 115th St, New York, NY 10029, USA"
"592",634,"E 118 St & Madison Ave",40.8014866,-73.9442507,"E 118 St & Madison Ave","E 118 St & Madison Ave, New York, NY 10035, United States"
"593",635,"Lexington Ave & E 111 St",40.7954121,-73.9441232,"Lexington Ave & E 111 St","Lexington Ave & E 111 St, New York, NY 10029, United States"
"594",636,"Madison Ave & E 120 St",40.80295,-73.942954,"Madison Ave & E 120 St","Madison Ave & E 120 St, New York, NY 10035, United States"
"595",637,"E 123 St & Lexington Ave",40.8029263,-73.9379,"E 123 St & Lexington Ave","E 123 St & Lexington Ave, New York, NY 10035, United States"
"596",638,"Lexington Ave & E 127 St",40.805726,-73.936322,"Lexington Ave & E 127 St","Lexington Ave & E 127 St, New York, NY 10035, United States"
"597",639,"Lexington Ave & E 120 St",40.8013066,-73.9398167,"Lexington Ave & E 120 St","Lexington Ave & E 120 St, New York, NY 10035, United States"
"598",640,"Park Ave & E 124 St",40.8045555,-73.9396861,"Park Ave & E 124 St","Park Ave & E 124 St, New York, NY 10035, United States"
"599",641,"St Nicholas Ave & Manhattan Ave",40.809725,-73.953149,"St Nicholas Ave & Manhattan Ave","St Nicholas Ave & Manhattan Ave, New York, NY 10027, United States"
"600",642,"Lenox Ave & W 115 St",40.8011939,-73.9500739,"Lenox Ave & W 115 St","Lenox Ave & W 115 St, New York, NY 10026, United States"
"601",643,"Adam Clayton Powell Blvd & W 123 St",40.8078316,-73.949373,"Adam Clayton Powell Blvd & W 123 St","Adam Clayton Powell Blvd & W 123 St, New York, NY 10027, United States"
"602",644,"Adam Clayton Powell Blvd & W 115 St",40.802535,-73.9532423,"Adam Clayton Powell Blvd & W 115 St","Adam Clayton Powell Blvd & W 115 St, New York, NY 10026, United States"
"603",645,"27 Ave & 4 St",40.7747175,-73.9337894,"27 Ave & 4 St","27 Ave & 4 St, Astoria, NY 11102, United States"
"604",646,"21 St & Hoyt Ave S",40.774645,-73.923706,"21 St & Hoyt Ave S","21 St & Hoyt Ave S, Astoria, NY 11102, United States"
"605",647,"Astoria Park S & Shore Blvd",40.7767,-73.927631,"Astoria Park S & Shore Blvd","Astoria Park S & Shore Blvd, Astoria, NY 11102, United States"
"606",648,"24 Ave & 26 St",40.774591,-73.918544,"24 Ave & 26 St","24 Ave & 26 St, Astoria, NY 11102, United States"
"607",649,"31 St & Astoria Blvd",40.7699176,-73.9184057,"31 St & Astoria Blvd","31 St & Astoria Blvd, Astoria, NY 11102, United States"
"608",650,"31 St & Hoyt Ave N",40.7711528,-73.9170074,"31 St & Hoyt Ave N","31 St & Hoyt Ave N, Astoria, NY 11102, United States"
"609",651,"Lenox Ave & W 126 St",40.808442,-73.9452087,"Lenox Ave & W 126 St","Lenox Ave & W 126 St, New York, NY 10027, United States"
"610",652,"Adam Clayton Powell Blvd & W 118 St",40.804372,-73.951475,"Adam Clayton Powell Blvd & W 118 St","Adam Clayton Powell Blvd & W 118 St, New York, NY 10026, United States"
"611",653,"Lenox Ave & W 111 St",40.7987859,-73.9523,"Lenox Ave & W 111 St","Lenox Ave & W 111 St, New York, NY 10026, United States"
"612",654,"37 St & 24 Ave",40.7701477,-73.9120938,"37 St & 24 Ave","37 St & 24 Ave, Astoria, NY 11105, United States"
"613",655,"24 Ave & 29 St",40.7729,-73.916142,"24 Ave & 29 St","24 Ave & 29 St, Astoria, NY 11102, United States"
"614",656,"19 St & 24 Ave",40.7774552,-73.9225403,"19 St & 24 Ave","19 St & 24 Ave, Astoria, NY 11102, United States"
"615",657,"23 Ave & 27 St",40.776165,-73.9153175,"23 Ave & 27 St","23 Ave & 27 St, Astoria, NY 11105, United States"
"616",658,"31 St & 23 Ave",40.7747878,-73.9125551,"31 St & 23 Ave","31 St & 23 Ave, Astoria, NY 11105, United States"
"617",659,"5 Ave & E 126 St",40.80698,-73.941747,"5 Ave & E 126 St","5 Ave & E 126 St, New York, NY 10035, United States"
"618",660,"Steinway St & 23 Ave",40.7713937,-73.9077436,"Steinway St & 23 Ave","Steinway St & 23 Ave, Astoria, NY 11105, United States"
"619",661,"Lenox Ave & W 130 St",40.8107922,-73.9430681,"Lenox Ave & W 130 St","Lenox Ave & W 130 St, New York, NY 10027, United States"
"620",662,"Crescent St & Ditmars Blvd",40.7787185,-73.9145645,"Crescent St & Ditmars Blvd","Crescent St & Ditmars Blvd, Astoria, NY 11105, United States"
"621",663,"Frederick Douglass Blvd & W 129 St",40.8125511,-73.9492286,"Frederick Douglass Blvd & W 129 St","Frederick Douglass Blvd & W 129 St, New York, NY 10027, United States"
"622",664,"Ditmars Blvd & 19 St",40.78145,-73.9183302,"Ditmars Blvd & 19 St","Ditmars Blvd & 19 St, Astoria, NY 11105, United States"
"623",665,"St. Nicholas Ave & W 126 St",40.8114323,-73.9518776,"St. Nicholas Ave & W 126 St","St. Nicholas Ave & W 126 St, New York, NY 10027, United States"
"624",666,"Frederick Douglass Blvd & W 117 St",40.805159,-73.954692,"Frederick Douglass Blvd & W 117 St","Frederick Douglass Blvd & W 117 St, New York, NY 10026, United States"
"625",667,"Mt Morris Park W & W 120 St",40.804038,-73.945925,"Mt Morris Park W & W 120 St","Mt Morris Park W & W 120 St, New York, NY 10035, United States"
"626",668,"W 116 St & Broadway",40.8082,-73.9641,"W 116 St & Broadway","W 116 St & Broadway, New York, NY 10027, United States"
"627",669,"Carlton Ave & Dean St",40.6809741,-73.9710097,"Carlton Ave & Dean St","Carlton Ave & Dean St, Brooklyn, NY 11238, United States"
"628",670,"W 110 St & Amsterdam Ave",40.802692,-73.96295,"W 110 St & Amsterdam Ave","W 110 St & Amsterdam Ave, New York, NY 10025, United States"
"629",671,"W 116 St & Amsterdam Ave",40.8067581,-73.9607082,"W 116 St & Amsterdam Ave","W 116 St & Amsterdam Ave, New York, NY 10027, United States"
"630",672,"Morningside Ave & W 123 St",40.81,-73.9551508,"Morningside Ave & W 123 St","Morningside Ave & W 123 St, New York, NY 10027, United States"
"631",673,"Amsterdam Ave & W 125 St",40.813358,-73.956461,"Amsterdam Ave & W 125 St","Amsterdam Ave & W 125 St, New York, NY 10027, United States"
"632",674,"Amsterdam Ave & W 119 St",40.8086249,-73.9596214,"Amsterdam Ave & W 119 St","Amsterdam Ave & W 119 St, New York, NY 10027, United States"
"633",675,"Morningside Dr & Amsterdam Ave",40.81028506306,-73.9573645591736,"Morningside Dr & Amsterdam Ave","Morningside Dr & Amsterdam Ave, New York, NY 10027, United States"
"634",676,"Underhill Ave & Pacific St",40.6804836,-73.9646795,"Underhill Ave & Pacific St","Underhill Ave & Pacific St, Brooklyn, NY 11238, United States"
"635",677,"Broadway & W 122 St",40.8120562,-73.9612547,"Broadway & W 122 St","Broadway & W 122 St, New York, NY 10027, United States"
"636",678,"Pacific St & Classon Ave",40.6791944,-73.9587903,"Pacific St & Classon Ave","1050 Atlantic Ave, Brooklyn, NY 11238, USA"
"637",679,"Broadway & Moylan Pl",40.8143256,-73.9590255,"Broadway & Moylan Pl","Broadway & Moylan Pl, New York, NY 10027, United States"
"638",680,"Grand Ave & Bergen St",40.678045,-73.962408,"Grand Ave & Bergen St","Grand Ave & Bergen St, Brooklyn, NY 11238, United States"
"639",681,"3 Ave & E 112 St",40.795508,-73.941606,"3 Ave & E 112 St","3 Ave & E 112 St, New York, NY 10029, United States"
"640",682,"W 113 St & Broadway",40.805973,-73.964928,"W 113 St & Broadway","W 113 St & Broadway, New York, NY 10025, United States"
"641",683,"Frederick Douglass Blvd & W 112 St",40.801694,-73.957145,"Frederick Douglass Blvd & W 112 St","Frederick Douglass Blvd & W 112 St, New York, NY 10026, United States"
"642",684,"Vernon Blvd & 41 Rd",40.7552433,-73.9485678,"Vernon Blvd & 41 Rd","Vernon Blvd & 41 Rd, Long Island City, NY 11101, United States"
"643",685,"28 St & 41 Ave",40.751047,-73.93797,"28 St & 41 Ave","28 St & 41 Ave, Long Island City, NY 11101, United States"
"644",686,"24 St & 41 Ave",40.7527085,-73.9397405,"24 St & 41 Ave","24 St & 41 Ave, Long Island City, NY 11101, United States"
"645",687,"40 Ave & 9 St",40.75742,-73.945133,"40 Ave & 9 St","40 Ave & 9 St, Long Island City, NY 11101, United States"
"646",688,"Bergen St & Vanderbilt Ave",40.6794388,-73.9680438,"Bergen St & Vanderbilt Ave","Bergen St & Vanderbilt Ave, Brooklyn, NY 11238, United States"
"647",689,"21 St & 38 Ave",40.7576314,-73.9391224,"21 St & 38 Ave","21 St & 38 Ave, Long Island City, NY 11101, United States"
"648",690,"28 St & 38 Ave",40.754876,-73.934326,"28 St & 38 Ave","28 St & 38 Ave, Long Island City, NY 11101, United States"
"649",691,"37 Ave & 35 St",40.7531106,-73.9279917,"37 Ave & 35 St","37-6 36th St, Long Island City, NY 11101, USA"
"650",692,"Classon Ave & St Marks Ave",40.6765198,-73.9596082,"Classon Ave & St Marks Ave","Classon Ave & St Marks Ave, Brooklyn, NY 11238, United States"
"651",693,"28 St & 36 Ave",40.757186,-73.932719,"28 St & 36 Ave","36-41 28th St, Long Island City, NY 11106, USA"
"652",694,"21 St & 36 Ave",40.7601853,-73.9362726,"21 St & 36 Ave","21 St & 36 Ave, Astoria, NY 11106, United States"
"653",695,"36 Ave & 10 St",40.7614376,-73.9411265,"36 Ave & 10 St","36 Ave & 10 St, Astoria, NY 11106, United States"
"654",696,"Crescent St & 35 Ave",40.7596276,-73.9321455,"Crescent St & 35 Ave","Crescent St & 35 Ave, Astoria, NY 11106, United States"
"655",697,"11 St & 35 Ave",40.7627442,-73.9391141,"11 St & 35 Ave","11 St & 35 Ave, Astoria, NY 11106, United States"
"656",698,"34 St & 35 Ave",40.7569332,-73.9262231,"34 St & 35 Ave","34 St & 35 Ave, Astoria, NY 11106, United States"
"657",699,"Franklin Ave & St Marks Ave",40.6758324,-73.9561677,"Franklin Ave & St Marks Ave","Franklin Ave & St Marks Ave, Brooklyn, NY 11238, United States"
"658",700,"35 Ave & 37 St",40.7557327,-73.9236611,"35 Ave & 37 St","3499 37th St, Long Island City, NY 11101, USA"
"659",701,"Bedford Ave & Bergen St",40.676368,-73.952918,"Bedford Ave & Bergen St","Bedford Ave & Bergen St, Brooklyn, NY 11216, United States"
"660",702,"34 Ave & 38 St",40.756913,-73.921631,"34 Ave & 38 St","34 Ave & 38 St, Astoria, NY 11101, United States"
"661",703,"35 St & 34 Ave",40.7580583,-73.9242751,"35 St & 34 Ave","3412 34th Ave, Astoria, NY 11106, USA"
"662",704,"Prospect Pl & Underhill Ave",40.6769694,-73.96579,"Prospect Pl & Underhill Ave","Prospect Pl & Underhill Ave, Brooklyn, NY 11238, United States"
"663",705,"Crescent St & 34 Ave",40.76108,-73.930562,"Crescent St & 34 Ave","Crescent St & 34 Ave, Astoria, NY 11106, United States"
"664",706,"Park Pl & Vanderbilt Ave",40.6767,-73.969024,"Park Pl & Vanderbilt Ave","Park Pl & Vanderbilt Ave, Brooklyn, NY 11238, United States"
"665",707,"34 Ave & 21 St",40.7628138,-73.9342862,"34 Ave & 21 St","34 Ave & 21 St, Astoria, NY 11106, United States"
"666",708,"Park Pl & Franklin Ave",40.6741806,-73.9564947,"Park Pl & Franklin Ave","Park Pl & Franklin Ave, Brooklyn, NY 11216, United States"
"667",709,"Sterling Pl & Bedford Ave",40.672695,-73.954131,"Sterling Pl & Bedford Ave","Sterling Pl & Bedford Ave, Brooklyn, NY 11216, United States"
"668",710,"St Johns Pl & Washington Ave",40.6737236,-73.9631611,"St Johns Pl & Washington Ave","St Johns Pl & Washington Ave, Brooklyn, NY 11238, United States"
"669",711,"Underhill Ave & Lincoln Pl",40.6740123,-73.9671457,"Underhill Ave & Lincoln Pl","Underhill Ave & Lincoln Pl, Brooklyn, NY 11238, United States"
"670",712,"Lincoln Pl & Classon Ave",40.6721683,-73.9609,"Lincoln Pl & Classon Ave","Lincoln Pl & Classon Ave, Brooklyn, NY 11238, United States"
"671",713,"Eastern Pkwy & Washington Ave",40.6716493,-73.9631145,"Eastern Pkwy & Washington Ave","200 Eastern Pkwy, Brooklyn, NY 11238, USA"
"672",714,"Eastern Pkwy & Franklin Ave",40.6707767,-73.9576801,"Eastern Pkwy & Franklin Ave","Eastern Pkwy & Franklin Ave, Brooklyn, NY 11225, United States"
"673",715,"Union St & Bedford Ave",40.6691783,-73.9554162,"Union St & Bedford Ave","Union St & Bedford Ave, Brooklyn, NY 11225, United States"
"674",716,"34 Ave & 13 St",40.7638753,-73.9364848,"34 Ave & 13 St","34 Ave & 13 St, Astoria, NY 11106, United States"
"675",717,"Carroll St & Washington Ave",40.6686744,-73.9618148,"Carroll St & Washington Ave","Carroll St & Washington Ave, Brooklyn, NY 11225, United States"
"676",718,"Vernon Blvd & 10 St",40.7671863,-73.9373554,"Vernon Blvd & 10 St","Vernon Blvd & 10 St, Astoria, NY 11106, United States"
"677",719,"Broadway & 12 St",40.7668,-73.9347774,"Broadway & 12 St","Broadway & 12 St, Astoria, NY 11106, United States"
"678",720,"Carroll St & Franklin Ave",40.6679411,-73.9588,"Carroll St & Franklin Ave","Carroll St & Franklin Ave, Brooklyn, NY 11225, United States"
"679",721,"21 St & 31 Dr",40.7659,-73.930819,"21 St & 31 Dr","21 St & 31 Dr, Astoria, NY 11106, United States"
"680",722,"Crescent St & Broadway",40.7633589,-73.9286471,"Crescent St & Broadway","23-56 Broadway, Long Island City, NY 11106, USA"
"681",723,"31 St & Broadway",40.761584,-73.925921,"31 St & Broadway","32-14 31st St, Astoria, NY 11106, USA"
"682",724,"35 St & Broadway",40.760339,-73.9222427,"35 St & Broadway","35 St & Broadway, Astoria, NY 11106, United States"
"683",725,"Sullivan Pl & Bedford Ave",40.6642406,-73.9574686,"Sullivan Pl & Bedford Ave","Sullivan Pl & Bedford Ave, Brooklyn, NY 11225, United States"
"684",726,"43 St & Broadway",40.7577284,-73.9166368,"43 St & Broadway","43 St & Broadway, Astoria, NY 11103, United States"
"685",727,"Newton Rd & 44 St",40.7595701,-73.9142678,"Newton Rd & 44 St","Newton Rd & 44 St, Astoria, NY 11103, United States"
"686",728,"Franklin Ave & Empire Blvd",40.66314,-73.9605695,"Franklin Ave & Empire Blvd","Franklin Ave & Empire Blvd, Brooklyn, NY 11225, United States"
"687",729,"Sterling St & Bedford Ave",40.6627059,-73.9569115,"Sterling St & Bedford Ave","Sterling St & Bedford Ave, Brooklyn, NY 11225, United States"
"688",730,"31 Ave & 34 St",40.763154,-73.920827,"31 Ave & 34 St","31 Ave & 34 St, Astoria, NY 11106, United States"
"689",731,"North Moore St & Greenwich St",40.7201952143746,-74.0103006362915,"North Moore St & Greenwich St","North Moore St & Greenwich St, New York, NY 10013, United States"
"690",732,"31 Ave & 30 St",40.7647,-73.9240312,"31 Ave & 30 St","31 Ave & 30 St, Astoria, NY 11106, United States"
"691",733,"Rogers Ave & Sterling St",40.6630619,-73.9538746,"Rogers Ave & Sterling St","Rogers Ave & Sterling St, Brooklyn, NY 11225, United States"
"692",734,"31 Ave & Crescent St",40.7658346,-73.9265474,"31 Ave & Crescent St","31 Ave & Crescent St, Astoria, NY 11106, United States"
"693",735,"49 Ave & 21 St",40.74252,-73.948852,"49 Ave & 21 St","49 Ave & 21 St, Long Island City, NY 11101, United States"
"694",736,"31 Ave & 14 St",40.7682,-73.9322662,"31 Ave & 14 St","31 Ave & 14 St, Astoria, NY 11106, United States"
"695",737,"5 St & 51 Ave",40.7423737,-73.9566,"5 St & 51 Ave","5 St & 51 Ave, Long Island City, NY 11101, United States"
"696",738,"Vernon Blvd & 31 Ave",40.7692475,-73.9354504,"Vernon Blvd & 31 Ave","Vernon Blvd & 31 Ave, Astoria, NY 11102, United States"
"697",739,"Vernon Blvd & 30 Rd",40.770845,-73.934171,"Vernon Blvd & 30 Rd","30-55 Vernon Blvd, Long Island City, NY 11102, USA"
"698",740,"Vernon Blvd & 47 Rd",40.7449067,-73.9534573,"Vernon Blvd & 47 Rd","Vernon Blvd & 47 Rd, Long Island City, NY 11101, United States"
"699",741,"30 Ave & 21 St",40.7703743,-73.9286078,"30 Ave & 21 St","30 Ave & 21 St, Astoria, NY 11102, United States"
"700",742,"Center Blvd & 48 Ave",40.745038,-73.957539,"Center Blvd & 48 Ave","Center Blvd & 48 Ave, Long Island City, NY 11101, United States"
"701",743,"Crescent St & 30 Ave",40.768692,-73.9249574,"Crescent St & 30 Ave","Crescent St & 30 Ave, Astoria, NY 11102, United States"
"702",744,"44 Dr & 21 St",40.748,-73.9460927,"44 Dr & 21 St","21-45 44th Dr, Long Island City, NY 11101, USA"
"703",745,"Steinway St & 28 Ave",40.7656251,-73.9136695,"Steinway St & 28 Ave","Steinway St & 28 Ave, Astoria, NY 11103, United States"
"704",746,"28 Ave & 35 St",40.7671,-73.9169858,"28 Ave & 35 St","28 Ave & 35 St, Astoria, NY 11103, United States"
"705",747,"27 St & Hunter St",40.7485,-73.941275,"27 St & Hunter St","27 St & Hunter St, Long Island City, NY 11101, United States"
"706",748,"Newtown Ave & 23 St",40.7713615,-73.9246145,"Newtown Ave & 23 St","Newtown Ave & 23 St, Astoria, NY 11102, United States"
"707",749,"11 St & 43 Ave",40.7519071,-73.9479119,"11 St & 43 Ave","11 St & 43 Ave, Long Island City, NY 11101, United States"
"708",750,"27 Ave & 9 St",40.7739825,-73.9309134,"27 Ave & 9 St","27 Ave & 9 St, Astoria, NY 11102, United States"
"709",751,"E 128 St & Madison Ave",40.80756,-73.939182,"E 128 St & Madison Ave","E 128 St & Madison Ave, New York, NY 10035, United States"
"710",752,"W 120 St & Claremont Ave",40.8109494,-73.9634,"W 120 St & Claremont Ave","475 Riverside Dr, New York, NY 10115, USA"
"711",753,"Lenox Ave & W 117 St",40.8025566,-73.9490782,"Lenox Ave & W 117 St","Lenox Ave & W 117 St, New York, NY 10026, United States"
"712",754,"Adam Clayton Powell Blvd & W 126 St",40.8094953477795,-73.9477649331093,"Adam Clayton Powell Blvd & W 126 St","Adam Clayton Powell Blvd & W 126 St, New York, NY 10027, United States"
"713",755,"Frederick Douglass Blvd & W 115 St",40.8038654,-73.9559308,"Frederick Douglass Blvd & W 115 St","Frederick Douglass Blvd & W 115 St, New York, NY 10026, United States"
"714",756,"Crown St & Bedford Ave",40.666563,-73.956741,"Crown St & Bedford Ave","Crown St & Bedford Ave, Brooklyn, NY 11225, United States"
"715",757,"Fulton St & Waverly Ave",40.6832386546034,-73.9659959077835,"Fulton St & Waverly Ave","Fulton St & Waverly Ave, Brooklyn, NY 11238, United States"
"716",761,"Broadway & W 25 St",40.7428687731211,-73.9891862869263,"Broadway & W 25 St","Broadway & W 25 St, New York, NY 10010, United States"
"717",762,"35 Ave & 10 St",40.7631548191037,-73.9398550987244,"35 Ave & 10 St","35 Ave & 10 St, Astoria, NY 11106, United States"
"718",763,"48 Ave & 30 Pl",40.7412830935599,-73.9372587203979,"48 Ave & 30 Pl","48 Ave & 30 Pl, Long Island City, NY 11101, United States"
"719",764,"Flushing Ave & Vanderbilt Ave",40.6979503156954,-73.970775604248,"Flushing Ave & Vanderbilt Ave","Flushing Ave & Vanderbilt Ave, Brooklyn, NY 11205, United States"
"720",765,"W 129 St & Convent Ave",40.8143944379158,-73.9532473683357,"W 129 St & Convent Ave","W 129 St & Convent Ave, New York, NY 10027, United States"
"721",766,"31 St & 35 Ave",40.7582046469676,-73.9283215999603,"31 St & 35 Ave","31 St/35 Av, Queens, NY 11106, USA"
"722",767,"31 St & Northern Blvd",40.7518695142187,-73.933492898941,"31 St & Northern Blvd","31 St & Northern Blvd, Long Island City, NY 11101, United States"
"723",768,"E 2 St & Avenue A",40.7230774906867,-73.9858362078667,"E 2 St & Avenue A","E 2 St & Avenue A, New York, NY 10009, United States"
"724",769,"W 18 St & 9 Ave",40.7435337324616,-74.0036755800247,"W 18 St & 9 Ave","W 18 St & 9 Ave, New York, NY 10011, United States"
"725",770,"W 17 St & 9 Ave",40.7429489166009,-74.0041369199753,"W 17 St & 9 Ave","W 17 St & 9 Ave, New York, NY 10011, United States"
"726",771,"W 16 St & 8 Ave",40.7410215090027,-74.001384973526,"W 16 St & 8 Ave","W 16 St & 8 Ave, New York, NY 10011, United States"
"727",772,"Montgomery St & Franklin Ave",40.6664393068708,-73.9605563879013,"Montgomery St & Franklin Ave","Montgomery St & Franklin Ave, Brooklyn, NY 11225, United States"
"728",773,"31 Ave & Steinway St",40.7612938972891,-73.916916847229,"31 Ave & Steinway St","31 Ave & Steinway St, Astoria, NY 11103, United States"
"729",774,"Leonard St & Nassau Ave",40.7239567849954,-73.9498436450958,"Leonard St & Nassau Ave","Leonard St & Nassau Ave, Brooklyn, NY 11222, United States"
"730",775,"E 81 St & 2 Ave",40.7747794489573,-73.9542746543884,"E 81 St & 2 Ave","E 81 St & 2 Ave, New York, NY 10028, United States"
"731",776,"Dean St & Franklin Ave",40.6775920693738,-73.955637216568,"Dean St & Franklin Ave","Dean St & Franklin Ave, Brooklyn, NY 11238, United States"
"732",777,"Jay St & York St",40.7014031725772,-73.9867267012596,"Jay St & York St","Jay St & York St, Brooklyn, NY 11201, United States"
"733",778,"3 Ave & E 95 St",40.7845967988489,-73.9496853947639,"3 Ave & E 95 St","3 Ave & E 95 St, New York, NY 10128, United States"
"734",779,"Van Brunt St & Van Dyke St",40.6758329439129,-74.0147262811661,"Van Brunt St & Van Dyke St","Van Brunt St & Van Dyke St, Brooklyn, NY 11231, United States"
"735",783,"E 43 St & 5 Ave",40.7541208107793,-73.9802518486977,"E 43 St & 5 Ave","E 43 St & 5 Ave, New York, NY 10175, United States"
"736",785,"W 12 St & W 4 St",40.7375612118114,-74.0039826929569,"W 12 St & W 4 St","W 12 St & W 4 St, New York, NY 10014, United States"
"737",786,"Gansevoort St & Hudson St",40.739448201304,-74.0050703287125,"Gansevoort St & Hudson St","Gansevoort St & Hudson St, New York, NY 10014, United States"
"738",787,"E 33 St & 1 Ave",40.7432268143217,-73.9744978398085,"E 33 St & 1 Ave","E 33 St & 1 Ave, New York, NY 10016, United States"
"739",788,"W 104 St & Amsterdam Ave",40.799041392883,-73.9664947986603,"W 104 St & Amsterdam Ave","W 104 St & Amsterdam Ave, New York, NY 10025, United States"
"740",789,"Park Pl & Church St",40.7133418427591,-74.0093551576138,"Park Pl & Church St","Park Pl & Church St, New York, NY 10007, United States"
"741",790,"28 Ave & 44 St",40.7640893235069,-73.9106512069702,"28 Ave & 44 St","28 Ave & 44 St, Astoria, NY 11103, United States"
"742",791,"5 St & Market St",40.6999974843885,-73.9744012802839,"5 St & Market St","5 St & Market St, Brooklyn, NY 11205, United States"
"743",792,"N 11 St & Kent Ave",40.7224818863822,-73.9592193067074,"N 11 St & Kent Ave","N 11 St & Kent Ave, Brooklyn, NY 11249, United States"
"744",794,"W 64 St & Thelonious Monk Circle",40.7751595343424,-73.9891869574785,"W 64 St & Thelonious Monk Circle","309 W 64th St, New York, NY 10023, USA"
"745",795,"W 50 St & 9 Ave",40.7636046779586,-73.9891795814037,"W 50 St & 9 Ave","W 50 St & 9 Ave, New York, NY 10019, United States"
"746",796,"Cliff St & Fulton St",40.708317943664,-74.0050408244133,"Cliff St & Fulton St","Cliff St & Fulton St, New York, NY 10038, United States"
"747",797,"47 Ave & Skillman Ave",40.7437524099784,-73.941764831543,"47 Ave & Skillman Ave","47 Ave & Skillman Ave, Long Island City, NY 11101, United States"
"748",798,"Lexington Ave & E 26 St",40.741459,-73.983293,"Lexington Ave & E 26 St","Lexington Ave & E 26 St, New York, NY 10016, United States"
"749",799,"W 13 St & 5 Ave",40.735445,-73.99431,"W 13 St & 5 Ave","W 13 St & 5 Ave, New York, NY 10011, United States"
"750",800,"W 15 St & 6 Ave",40.7380461424828,-73.996429592371,"W 15 St & 6 Ave","W 15 St & 6 Ave, New York, NY 10011, United States"
"751",801,"E 13 St & Avenue A",40.7296672939298,-73.9806796610355,"E 13 St & Avenue A","E 13 St & Avenue A, New York, NY 10009, United States"
"752",802,"W 35 St & Dyer Ave",40.754691750226,-73.9974018931389,"W 35 St & Dyer Ave","W 35 St & Dyer Ave, New York, NY 10001, United States"
"753",803,"Division Av & Hooper St",40.7068420310133,-73.9544353965357,"Division Av & Hooper St","Division Av & Hooper St, Brooklyn, NY 11211, United States"
"754",804,"Driggs Ave & N 9 St",40.7181696945421,-73.9552013576031,"Driggs Ave & N 9 St","Driggs Ave & N 9 St, Brooklyn, NY 11211, United States"
"755",805,"40 Ave & Crescent St",40.7535992020056,-73.9379560947418,"40 Ave & Crescent St","39-50 Crescent St, Long Island City, NY 11101, USA"
"756",806,"E 11 St & Avenue B",40.7274642069239,-73.9795041829348,"E 11 St & Avenue B","E 11 St & Avenue B, New York, NY 10009, United States"
"757",807,"Wyckoff St & Bond St",40.6846165389795,-73.9872128516436,"Wyckoff St & Bond St","Wyckoff St & Bond St, Brooklyn, NY 11217, United States"
"758",808,"31 St & Newtown Ave",40.7675487799971,-73.9209334552288,"31 St & Newtown Ave","31 St & Newtown Ave, Astoria, NY 11102, United States"
"759",809,"Cadman Plaza E & Johnson St",40.695317277669,-73.9901572465897,"Cadman Plaza E & Johnson St","Cadman Plaza E & Johnson St, Brooklyn, NY 11201, United States"
"760",810,"7 Ave & Central Park South",40.7667405590595,-73.9790689945221,"7 Ave & Central Park South","7 Ave & Central Park South, New York, NY 10019, United States"
"761",811,"2 Ave & E 72 St",40.7687620293096,-73.9584079384804,"2 Ave & E 72 St","2 Av/E 72 St, New York, NY 10021, USA"
"762",812,"Center Blvd & 51 Ave",40.7433660802702,-73.95960688591,"Center Blvd & 51 Ave","Center Blvd & 51 Ave, Long Island City, NY 11101, United States"
"763",813,"Frost St & Meeker Ave",40.7178479841773,-73.9475201815367,"Frost St & Meeker Ave","104 Frost St, Brooklyn, NY 11211, USA"
"764",814,"Pierrepont St & Monroe Pl",40.6953569332022,-73.9934402704239,"Pierrepont St & Monroe Pl","Pierrepont St & Monroe Pl, Brooklyn, NY 11201, United States"
